[{"longitude":-72.43286,"latitude":6.4864,"postal_Code":"151247","plant_Order":"Fabaceae"},
{"longitude":24.3256379,"latitude":60.4165735,"postal_Code":"03400","plant_Order":"Ramalinaceae"},
{"longitude":108.273158,"latitude":22.781631,"postal_Code":null,"plant_Order":"Juncaceae"},
{"longitude":37.315783,"latitude":55.9437901,"postal_Code":"143020","plant_Order":"Rubiaceae"},
{"longitude":-47.058302,"latitude":-18.998706,"postal_Code":"38740-000","plant_Order":"Aristolochiaceae"},
{"longitude":25.7407452,"latitude":35.0118955,"postal_Code":null,"plant_Order":"Lecideaceae"},
{"longitude":106.5589556,"latitude":26.4363523,"postal_Code":null,"plant_Order":"Ranunculaceae"},
{"longitude":123.3996176,"latitude":9.8769686,"postal_Code":"6032","plant_Order":"Pteridaceae"},
{"longitude":132.3546464,"latitude":43.3250688,"postal_Code":"692815","plant_Order":"Euphorbiaceae"},
{"longitude":19.1833654,"latitude":49.6246813,"postal_Code":"34-382","plant_Order":"Lamiaceae"},
{"longitude":10.8084675,"latitude":35.5673752,"postal_Code":null,"plant_Order":"Poaceae"},
{"longitude":"108.6747","latitude":"-7.5208","postal_Code":null,"plant_Order":"Lecanoraceae"},
{"longitude":131.150964,"latitude":33.2771465,"postal_Code":"879-4413","plant_Order":"Asteraceae"},
{"longitude":117.646567,"latitude":36.702014,"postal_Code":null,"plant_Order":"Fabaceae"},
{"longitude":120.158598,"latitude":30.327543,"postal_Code":null,"plant_Order":"Poaceae"},
{"longitude":49.5564219,"latitude":53.3797233,"postal_Code":"445359","plant_Order":"Cyperaceae"},
{"longitude":18.0574901,"latitude":59.3320898,"postal_Code":"111 20","plant_Order":"Solanaceae"},
{"longitude":121.0062678,"latitude":14.2647129,"postal_Code":"9400","plant_Order":"Asteraceae"},
{"longitude":22.505053,"latitude":41.884195,"postal_Code":"2310","plant_Order":"Poaceae"},
{"longitude":11.0502709,"latitude":49.4025357,"postal_Code":"90451","plant_Order":"Rhamnaceae"},
{"longitude":123.1893864,"latitude":9.4362547,"postal_Code":"1375","plant_Order":"Violaceae"},
{"longitude":-82.4874499,"latitude":35.5873507,"postal_Code":"28815","plant_Order":"Asteraceae"},
{"longitude":114.9279547,"latitude":-8.3262486,"postal_Code":null,"plant_Order":"Polygonaceae"},
{"longitude":18.3826102,"latitude":45.3940354,"postal_Code":"31422","plant_Order":"Scrophulariaceae"},
{"longitude":93.163273,"latitude":36.909074,"postal_Code":null,"plant_Order":"Brassicaceae"},
{"longitude":108.0940566,"latitude":-7.3055997,"postal_Code":null,"plant_Order":"Rosaceae"},
{"longitude":123.958258,"latitude":10.2600338,"postal_Code":"2621","plant_Order":"Heliconiaceae"},
{"longitude":47.0220321,"latitude":58.9764624,"postal_Code":"157780","plant_Order":"Ericaceae"},
{"longitude":-47.4073665,"latitude":-22.6091889,"postal_Code":"607343","plant_Order":"Polygonaceae"},
{"longitude":122.9052261,"latitude":13.7823265,"postal_Code":"4409","plant_Order":"Apiaceae"},
{"longitude":106.5760857,"latitude":22.4919891,"postal_Code":null,"plant_Order":"Scrophulariaceae"},
{"longitude":116.4041472,"latitude":39.9666494,"postal_Code":null,"plant_Order":"Fabaceae"},
{"longitude":"108.1264","latitude":"-7.2966","postal_Code":null,"plant_Order":"Teloschistaceae"},
{"longitude":111.034516,"latitude":28.512467,"postal_Code":null,"plant_Order":"Asteraceae"},
{"longitude":-56.3628409,"latitude":-34.7611766,"postal_Code":null,"plant_Order":"Asteraceae"},
{"longitude":28.7402073,"latitude":-9.353427,"postal_Code":null,"plant_Order":"Asteraceae"},
{"longitude":-75.3645369,"latitude":9.0039801,"postal_Code":"232059","plant_Order":"Pottiaceae"},
{"longitude":106.4376425,"latitude":20.3812787,"postal_Code":null,"plant_Order":"Convolvulaceae"},
{"longitude":15.6421092,"latitude":43.7974664,"postal_Code":"22240","plant_Order":"Brassicaceae"},
{"longitude":106.8915948,"latitude":-6.2074293,"postal_Code":null,"plant_Order":"Asteraceae"},
{"longitude":-86.2183907,"latitude":11.8554828,"postal_Code":null,"plant_Order":"Polygonaceae"},
{"longitude":-75.9116289,"latitude":4.7472212,"postal_Code":"762027","plant_Order":"Scrophulariaceae"},
{"longitude":15.5445064,"latitude":38.1724824,"postal_Code":"98124","plant_Order":"Uncertain Ascomycota Family"},
{"longitude":111.6571293,"latitude":-6.8654713,"postal_Code":null,"plant_Order":"Cyperaceae"},
{"longitude":136.888602,"latitude":36.5503029,"postal_Code":"939-1733","plant_Order":"Micareaceae"},
{"longitude":120.205192,"latitude":30.260023,"postal_Code":null,"plant_Order":"Cyperaceae"},
{"longitude":58.0235821,"latitude":65.371498,"postal_Code":"169645","plant_Order":"Grimmiaceae"},
{"longitude":13.1451742,"latitude":55.3767331,"postal_Code":"231 23","plant_Order":"Apocynaceae"},
{"longitude":-36.7388486,"latitude":-8.3627277,"postal_Code":"55200-000","plant_Order":"Lamiaceae"},
{"longitude":-51.5054475,"latitude":-27.1743773,"postal_Code":"89600-000","plant_Order":"Myrtaceae"},
{"longitude":78.5064473,"latitude":30.2646273,"postal_Code":null,"plant_Order":"Clusiaceae"},
{"longitude":112.571923,"latitude":28.260141,"postal_Code":null,"plant_Order":"Boraginaceae"},
{"longitude":23.7098368,"latitude":43.1434185,"postal_Code":"5292","plant_Order":"Limnanthaceae"},
{"longitude":17.9791475,"latitude":59.3618675,"postal_Code":"172 69","plant_Order":"Rubiaceae"},
{"longitude":-74.1474846,"latitude":9.1669471,"postal_Code":"473029","plant_Order":"Parmeliaceae"},
{"longitude":101.765843,"latitude":36.628305,"postal_Code":null,"plant_Order":"Apiaceae"},
{"longitude":25.987464,"latitude":64.8101062,"postal_Code":"91501","plant_Order":"Fabaceae"},
{"longitude":-9.0134196,"latitude":38.6259214,"postal_Code":"2835-526","plant_Order":"Rosaceae"},
{"longitude":35.288375,"latitude":32.032726,"postal_Code":null,"plant_Order":"Umbilicariaceae"},
{"longitude":20.9253299,"latitude":40.5072039,"postal_Code":null,"plant_Order":"Brassicaceae"},
{"longitude":14.4728422,"latitude":50.7736289,"postal_Code":"471 14","plant_Order":"Cyperaceae"},
{"longitude":30.1341099,"latitude":61.0390194,"postal_Code":"188760","plant_Order":"Physciaceae"},
{"longitude":19.4619176,"latitude":52.4293273,"postal_Code":"09-500","plant_Order":"Caryophyllaceae"},
{"longitude":"120.6359","latitude":"-8.4539","postal_Code":null,"plant_Order":"Brassicaceae"},
{"longitude":112.3650707,"latitude":-6.9933556,"postal_Code":null,"plant_Order":"Cyperaceae"},
{"longitude":6.2194418,"latitude":47.6022755,"postal_Code":"70004 CEDEX","plant_Order":"Crassulaceae"},
{"longitude":24.4410972,"latitude":42.0070624,"postal_Code":"4585","plant_Order":"Thelypteridaceae"},
{"longitude":"108.0375","latitude":"-7.1569","postal_Code":null,"plant_Order":"Asteraceae"},
{"longitude":-97.5294628,"latitude":25.8263535,"postal_Code":"87395","plant_Order":"Gesneriaceae"},
{"longitude":6.3485626,"latitude":49.6877756,"postal_Code":"L-6832","plant_Order":"Lecanoraceae"},
{"longitude":-81.6802054,"latitude":27.9890156,"postal_Code":"33884","plant_Order":"Juncaceae"},
{"longitude":-87.1711922,"latitude":14.8921247,"postal_Code":null,"plant_Order":"Fabaceae"},
{"longitude":20.7891235,"latitude":60.261145,"postal_Code":"22820","plant_Order":"Brassicaceae"},
{"longitude":13.7445655,"latitude":56.546084,"postal_Code":"287 32","plant_Order":"Juncaceae"},
{"longitude":109.1068822,"latitude":13.3807374,"postal_Code":null,"plant_Order":"Fabaceae"},
{"longitude":-73.5425659,"latitude":9.201062,"postal_Code":"203067","plant_Order":"Lythraceae"},
{"longitude":35.364579,"latitude":32.082978,"postal_Code":null,"plant_Order":"Clusiaceae"},
{"longitude":107.5505152,"latitude":-7.1988888,"postal_Code":null,"plant_Order":"Pannariaceae"},
{"longitude":12.7210712,"latitude":56.0212332,"postal_Code":"252 30","plant_Order":"Fabaceae"},
{"longitude":"22.01667","latitude":"39.33333","postal_Code":null,"plant_Order":"Poaceae"},
{"longitude":82.353656,"latitude":44.840524,"postal_Code":null,"plant_Order":"Hydrophyllaceae"},
{"longitude":33.3096133,"latitude":68.1416652,"postal_Code":"646400","plant_Order":"Ericaceae"},
{"longitude":112.6600907,"latitude":-7.4742776,"postal_Code":null,"plant_Order":"Cyperaceae"},
{"longitude":11.4668922,"latitude":58.18501,"postal_Code":"474 31","plant_Order":"Rubiaceae"},
{"longitude":"24.8","latitude":"54.76667","postal_Code":"21058","plant_Order":"Brassicaceae"},
{"longitude":-103.461601,"latitude":20.5511364,"postal_Code":"29480","plant_Order":"Juglandaceae"},
{"longitude":118.7519286,"latitude":-8.4624319,"postal_Code":null,"plant_Order":"Commelinaceae"},
{"longitude":121.0758172,"latitude":14.7512576,"postal_Code":"3016","plant_Order":"Cactaceae"},
{"longitude":108.3905156,"latitude":-7.0120918,"postal_Code":null,"plant_Order":"Nyctaginaceae"},
{"longitude":106.002647,"latitude":33.026386,"postal_Code":null,"plant_Order":"Arecaceae"},
{"longitude":-4.7588042,"latitude":10.6400163,"postal_Code":null,"plant_Order":"Fabaceae"},
{"longitude":27.9329385,"latitude":47.7582463,"postal_Code":"MD-3714","plant_Order":"Fabaceae"},
{"longitude":-48.278112,"latitude":-17.308611,"postal_Code":"75200-000","plant_Order":"Fabaceae"},
{"longitude":-81.166481,"latitude":7.9819727,"postal_Code":null,"plant_Order":"Arthopyreniaceae"},
{"longitude":119.548497,"latitude":26.766584,"postal_Code":null,"plant_Order":"Polemoniaceae"},
{"longitude":11.1107854,"latitude":35.23369,"postal_Code":null,"plant_Order":"Bacidiaceae"},
{"longitude":-41.0165586,"latitude":-19.5097867,"postal_Code":"29730-000","plant_Order":"Fabaceae"},
{"longitude":2.7877074,"latitude":49.3559892,"postal_Code":"60618 CEDEX","plant_Order":"Polemoniaceae"},
{"longitude":25.3248541,"latitude":42.2020702,"postal_Code":"6200","plant_Order":"Scrophulariaceae"},
{"longitude":113.814606,"latitude":22.636828,"postal_Code":null,"plant_Order":"Ranunculaceae"},
{"longitude":14.6292015,"latitude":48.9371252,"postal_Code":"373 11","plant_Order":"Asteraceae"},
{"longitude":112.7613933,"latitude":-7.3427222,"postal_Code":null,"plant_Order":"Rubiaceae"},
{"longitude":-86.1828047,"latitude":13.3042145,"postal_Code":null,"plant_Order":"Solanaceae"},
{"longitude":-41.8625084,"latitude":-22.4206096,"postal_Code":"28890-000","plant_Order":"Fabaceae"},
{"longitude":-75.4944768,"latitude":8.9410756,"postal_Code":"232559","plant_Order":"Caryophyllaceae"},
{"longitude":3.8924136,"latitude":45.0428681,"postal_Code":"43010 CEDEX","plant_Order":"Polygonaceae"},
{"longitude":34.6153907,"latitude":48.0589455,"postal_Code":null,"plant_Order":"Umbilicariaceae"},
{"longitude":103.5905415,"latitude":14.4769135,"postal_Code":"57210","plant_Order":"Malvaceae"},
{"longitude":119.996847,"latitude":29.454189,"postal_Code":null,"plant_Order":"Dicranaceae"},
{"longitude":120.4936932,"latitude":15.9385737,"postal_Code":"2430","plant_Order":"Rosaceae"},
{"longitude":85.5097226,"latitude":27.5828698,"postal_Code":null,"plant_Order":"Lecideaceae"},
{"longitude":13.4761485,"latitude":52.5593051,"postal_Code":"13088","plant_Order":"Asteraceae"},
{"longitude":9.7734455,"latitude":0.3740355,"postal_Code":null,"plant_Order":"Fabaceae"},
{"longitude":124.2236352,"latitude":7.3530394,"postal_Code":"1204","plant_Order":"Pottiaceae"},
{"longitude":"109.73583","latitude":"27.69417","postal_Code":null,"plant_Order":"Asteraceae"},
{"longitude":9.8627243,"latitude":37.2746124,"postal_Code":null,"plant_Order":"Oleaceae"},
{"longitude":59.656685,"latitude":57.6602926,"postal_Code":"622910","plant_Order":"Heliconiaceae"},
{"longitude":121.012257,"latitude":14.183396,"postal_Code":"4118","plant_Order":"Liliaceae"},
{"longitude":20.1242053,"latitude":44.596795,"postal_Code":null,"plant_Order":"Ranunculaceae"},
{"longitude":89.0001154,"latitude":56.0711371,"postal_Code":"652245","plant_Order":"Fabaceae"},
{"longitude":89.208761,"latitude":29.686366,"postal_Code":null,"plant_Order":"Hydrophyllaceae"},
{"longitude":"35.2998","latitude":"31.95388","postal_Code":null,"plant_Order":"Burseraceae"},
{"longitude":"-111.88543","latitude":"60.00029","postal_Code":"L4S","plant_Order":"Asteraceae"},
{"longitude":103.565191,"latitude":29.601192,"postal_Code":null,"plant_Order":"Scrophulariaceae"},
{"longitude":-73.1054544,"latitude":7.0427956,"postal_Code":"681008","plant_Order":"Fabaceae"},
{"longitude":1.193264,"latitude":9.546837,"postal_Code":null,"plant_Order":"Cyperaceae"},
{"longitude":120.3542849,"latitude":16.0464514,"postal_Code":"8707","plant_Order":"Fabaceae"},
{"longitude":106.3483779,"latitude":-6.9028171,"postal_Code":null,"plant_Order":"Ranunculaceae"},
{"longitude":104.406708,"latitude":30.839274,"postal_Code":null,"plant_Order":"Poaceae"},
{"longitude":114.073416,"latitude":27.519549,"postal_Code":null,"plant_Order":"Loasaceae"},
{"longitude":64.7755147,"latitude":35.91784,"postal_Code":null,"plant_Order":"Oxalidaceae"},
{"longitude":91.9334697,"latitude":53.337199,"postal_Code":"655672","plant_Order":"Fagaceae"},
{"longitude":100.22775,"latitude":26.855047,"postal_Code":null,"plant_Order":"Pinaceae"},
{"longitude":130.2705618,"latitude":33.1991855,"postal_Code":"840-2223","plant_Order":"Asteraceae"},
{"longitude":15.0839052,"latitude":50.578132,"postal_Code":"463 46","plant_Order":"Cyperaceae"},
{"longitude":-7.939099,"latitude":40.8449853,"postal_Code":"3600-584","plant_Order":"Violaceae"},
{"longitude":21.58589,"latitude":17.193029,"postal_Code":null,"plant_Order":"Asteraceae"},
{"longitude":1.820875,"latitude":47.5113895,"postal_Code":"84913 CEDEX 9","plant_Order":"Fabaceae"},
{"longitude":23.1251092,"latitude":43.2370452,"postal_Code":"3500","plant_Order":"Buddlejaceae"},
{"longitude":21.7053767,"latitude":65.821212,"postal_Code":"961 73","plant_Order":"Anemiaceae"},
{"longitude":-36.9111057,"latitude":-6.9078713,"postal_Code":"58600-000","plant_Order":"Brassicaceae"},
{"longitude":41.756863,"latitude":46.277611,"postal_Code":"347612","plant_Order":"Fabaceae"},
{"longitude":113.300129,"latitude":40.076762,"postal_Code":null,"plant_Order":"Fabaceae"},
{"longitude":22.4259628,"latitude":38.4324927,"postal_Code":null,"plant_Order":"Cyperaceae"},
{"longitude":109.4259114,"latitude":0.3179939,"postal_Code":null,"plant_Order":"Asteraceae"},
{"longitude":-81.166481,"latitude":7.9819727,"postal_Code":null,"plant_Order":"Fabaceae"},
{"longitude":109.374802,"latitude":0.556948,"postal_Code":null,"plant_Order":"Gesneriaceae"},
{"longitude":6.2194418,"latitude":47.6022755,"postal_Code":"70004 CEDEX","plant_Order":"Cornaceae"},
{"longitude":100.2151578,"latitude":16.0543375,"postal_Code":"66130","plant_Order":"Caryophyllaceae"},
{"longitude":44.6345848,"latitude":40.2004541,"postal_Code":null,"plant_Order":"Hypnaceae"},
{"longitude":115.067761,"latitude":26.520513,"postal_Code":null,"plant_Order":"Bartramiaceae"},
{"longitude":117.223371,"latitude":39.109563,"postal_Code":null,"plant_Order":"Acanthaceae"},
{"longitude":58.1252383,"latitude":23.4069561,"postal_Code":null,"plant_Order":"Verbenaceae"},
{"longitude":-122.64,"latitude":38.32,"postal_Code":"94975","plant_Order":"Cupressaceae"},
{"longitude":-51.5507365,"latitude":-28.9427186,"postal_Code":"95330-000","plant_Order":"Elaeagnaceae"},
{"longitude":-49.0009403,"latitude":-18.1111446,"postal_Code":"75660-000","plant_Order":"Scrophulariaceae"},
{"longitude":111.034516,"latitude":28.512467,"postal_Code":null,"plant_Order":"Fagaceae"},
{"longitude":27.8750976,"latitude":-28.8999222,"postal_Code":"9732","plant_Order":"Campanulaceae"},
{"longitude":-0.6298922,"latitude":5.3622295,"postal_Code":null,"plant_Order":"Saxifragaceae"},
{"longitude":121.3439494,"latitude":14.0767924,"postal_Code":"4323","plant_Order":"Asteraceae"},
{"longitude":104.02753,"latitude":30.715704,"postal_Code":null,"plant_Order":"Rhachitheciaceae"},
{"longitude":120.075461,"latitude":28.420801,"postal_Code":null,"plant_Order":"Burseraceae"},
{"longitude":68.9071861,"latitude":24.5552816,"postal_Code":"72200","plant_Order":"Cyperaceae"},
{"longitude":115.099494,"latitude":40.608793,"postal_Code":null,"plant_Order":"Asteraceae"},
{"longitude":101.7178316,"latitude":3.1523104,"postal_Code":"59800","plant_Order":"Orchidaceae"},
{"longitude":50.089775,"latitude":40.4531669,"postal_Code":null,"plant_Order":"Liliaceae"},
{"longitude":28.3323137,"latitude":-25.790615,"postal_Code":"0876","plant_Order":"Hydrophyllaceae"},
{"longitude":113.9001141,"latitude":-8.2156978,"postal_Code":null,"plant_Order":"Verbenaceae"},
{"longitude":15.6996613,"latitude":50.4987034,"postal_Code":"544 75","plant_Order":"Cladoniaceae"},
{"longitude":-76.1088001,"latitude":3.6540491,"postal_Code":"763528","plant_Order":"Orchidaceae"},
{"longitude":36.8653891,"latitude":36.5122781,"postal_Code":null,"plant_Order":"Piperaceae"},
{"longitude":72.1860386,"latitude":40.2947998,"postal_Code":null,"plant_Order":"Polygonaceae"},
{"longitude":124.796217,"latitude":7.20312,"postal_Code":"9408","plant_Order":"Solanaceae"},
{"longitude":-58.2622254,"latitude":-34.7942024,"postal_Code":"3610","plant_Order":"Fabaceae"},
{"longitude":-96.3598367,"latitude":18.4458276,"postal_Code":"40678","plant_Order":"Polygonaceae"},
{"longitude":109.1474718,"latitude":-7.0448067,"postal_Code":null,"plant_Order":"Polemoniaceae"},
{"longitude":114.41958,"latitude":23.073914,"postal_Code":null,"plant_Order":"Fagaceae"},
{"longitude":-9.4389381,"latitude":38.7519042,"postal_Code":"2755-123","plant_Order":"Onagraceae"},
{"longitude":-6.1544115,"latitude":53.4855448,"postal_Code":"K67","plant_Order":"Fabaceae"},
{"longitude":-82.4265217,"latitude":8.5147676,"postal_Code":null,"plant_Order":"Asteraceae"},
{"longitude":"122.01514","latitude":"17.06034","postal_Code":"2708","plant_Order":"Orchidaceae"},
{"longitude":112.7435171,"latitude":-7.2832314,"postal_Code":null,"plant_Order":"Onagraceae"},
{"longitude":26.4423222,"latitude":50.8790699,"postal_Code":null,"plant_Order":"Orchidaceae"},
{"longitude":13.7677916,"latitude":45.5746977,"postal_Code":"6281","plant_Order":"Fabaceae"},
{"longitude":-87.606295,"latitude":14.7601863,"postal_Code":null,"plant_Order":"Polemoniaceae"},
{"longitude":30.6057342,"latitude":-29.0748919,"postal_Code":"3500","plant_Order":"Asteraceae"},
{"longitude":102.4976,"latitude":25.221935,"postal_Code":null,"plant_Order":"Salicaceae"},
{"longitude":107.0568962,"latitude":-6.2377312,"postal_Code":null,"plant_Order":"Gentianaceae"},
{"longitude":-84.145885,"latitude":9.943182,"postal_Code":"10201","plant_Order":"Tiliaceae"},
{"longitude":111.9790773,"latitude":-7.8169756,"postal_Code":null,"plant_Order":"Bacidiaceae"},
{"longitude":-34.8403408,"latitude":-7.2893545,"postal_Code":"58322-000","plant_Order":"Scrophulariaceae"},
{"longitude":112.309325,"latitude":25.521039,"postal_Code":null,"plant_Order":"Poaceae"},
{"longitude":-58.870055,"latitude":-34.5685748,"postal_Code":"9050","plant_Order":"Cucurbitaceae"},
{"longitude":-51.6044276,"latitude":-27.3482312,"postal_Code":"89665-000","plant_Order":"Polygonaceae"},
{"longitude":119.065936,"latitude":26.512298,"postal_Code":null,"plant_Order":"Poaceae"},
{"longitude":-69.5597273,"latitude":-18.1969907,"postal_Code":null,"plant_Order":"Fabaceae"},
{"longitude":43.2923971,"latitude":52.0379571,"postal_Code":"412091","plant_Order":"Fabaceae"},
{"longitude":-9.0817894,"latitude":38.5537924,"postal_Code":"2975-005","plant_Order":"Apiaceae"},
{"longitude":-121.5198716,"latitude":38.6198298,"postal_Code":"95833","plant_Order":"Verbenaceae"},
{"longitude":110.179953,"latitude":25.234479,"postal_Code":null,"plant_Order":"Polygonaceae"},
{"longitude":106.6939803,"latitude":-6.5752811,"postal_Code":null,"plant_Order":"Rubiaceae"},
{"longitude":106.8783167,"latitude":-6.2960156,"postal_Code":null,"plant_Order":"Lamiaceae"},
{"longitude":17.0729206,"latitude":51.8846508,"postal_Code":"63-820","plant_Order":"Poaceae"},
{"longitude":28.0121149,"latitude":57.5394675,"postal_Code":"181280","plant_Order":"Poaceae"},
{"longitude":-7.9165006,"latitude":39.9153943,"postal_Code":"6160-402","plant_Order":"Poaceae"},
{"longitude":-1.9814245,"latitude":43.3177929,"postal_Code":"20005","plant_Order":"Asteraceae"},
{"longitude":-97.3617845,"latitude":32.7087439,"postal_Code":"76129","plant_Order":"Cyperaceae"},
{"longitude":-72.0896229,"latitude":-15.6093293,"postal_Code":null,"plant_Order":"Hymeneliaceae"},
{"longitude":20.5870955,"latitude":32.5326308,"postal_Code":null,"plant_Order":"Aristolochiaceae"},
{"longitude":-5.2697497,"latitude":34.6756374,"postal_Code":null,"plant_Order":"Asteraceae"},
{"longitude":20.6119813,"latitude":52.4379891,"postal_Code":"05-170","plant_Order":"Liliaceae"},
{"longitude":-9.0248232,"latitude":53.2760162,"postal_Code":"K78","plant_Order":"Scrophulariaceae"},
{"longitude":110.404001,"latitude":21.493713,"postal_Code":null,"plant_Order":"Dennstaedtiaceae"},
{"longitude":101.9476452,"latitude":2.7239834,"postal_Code":"70536","plant_Order":"Gentianaceae"},
{"longitude":121.474042,"latitude":30.917795,"postal_Code":null,"plant_Order":"Malpighiaceae"},
{"longitude":-75.55,"latitude":39.75,"postal_Code":"19892","plant_Order":"Iridaceae"},
{"longitude":-53.6827015,"latitude":-29.2293516,"postal_Code":"98130-000","plant_Order":"Celastraceae"},
{"longitude":-91.2062,"latitude":14.740281,"postal_Code":"07014","plant_Order":"Brassicaceae"},
{"longitude":99.855247,"latitude":12.0554892,"postal_Code":"43150","plant_Order":"Asteraceae"},
{"longitude":-76.7711626,"latitude":-6.9353405,"postal_Code":null,"plant_Order":"Fabaceae"},
{"longitude":45.5751086,"latitude":41.8963254,"postal_Code":null,"plant_Order":"Poaceae"},
{"longitude":108.2257659,"latitude":-7.003771,"postal_Code":null,"plant_Order":"Ulmaceae"},
{"longitude":114.504677,"latitude":37.070834,"postal_Code":null,"plant_Order":"Aceraceae"},
{"longitude":-6.1157412,"latitude":53.2774963,"postal_Code":"A91","plant_Order":"Limnanthaceae"},
{"longitude":18.6516275,"latitude":50.2368774,"postal_Code":"44-196","plant_Order":"Liliaceae"},
{"longitude":107.503649,"latitude":27.867125,"postal_Code":null,"plant_Order":"Onagraceae"},
{"longitude":100.874336,"latitude":26.235575,"postal_Code":null,"plant_Order":"Asteraceae"},
{"longitude":-90.0375295,"latitude":14.2712301,"postal_Code":"22017","plant_Order":"Orchidaceae"},
{"longitude":37.7075811,"latitude":48.5239429,"postal_Code":null,"plant_Order":"Vitaceae"},
{"longitude":27.116667,"latitude":-23.4833329,"postal_Code":null,"plant_Order":"Poaceae"},
{"longitude":103.760377,"latitude":25.424394,"postal_Code":null,"plant_Order":"Caryophyllaceae"},
{"longitude":109.836669,"latitude":27.208609,"postal_Code":null,"plant_Order":"Lamiaceae"},
{"longitude":-53.4832383,"latitude":-30.5148445,"postal_Code":"96570-000","plant_Order":"Asteraceae"},
{"longitude":120.3136265,"latitude":15.9593855,"postal_Code":"2417","plant_Order":"Violaceae"},
{"longitude":28.2526623,"latitude":-28.9510773,"postal_Code":null,"plant_Order":"Aspleniaceae"},
{"longitude":14.6815528,"latitude":53.6845788,"postal_Code":"72-112","plant_Order":"Asteraceae"},
{"longitude":-65.7550063,"latitude":-19.5722805,"postal_Code":null,"plant_Order":"Aquifoliaceae"},
{"longitude":-25.231895,"latitude":37.8450241,"postal_Code":"9630-224","plant_Order":"Poaceae"},
{"longitude":15.6123444,"latitude":49.3320487,"postal_Code":"588 33","plant_Order":"Solanaceae"},
{"longitude":13.8803513,"latitude":45.9015821,"postal_Code":"5270","plant_Order":"Agavaceae"},
{"longitude":"123.4767","latitude":"-10.168","postal_Code":null,"plant_Order":"Ranunculaceae"},
{"longitude":-5.35,"latitude":13.816667,"postal_Code":null,"plant_Order":"Droseraceae"},
{"longitude":91.634756,"latitude":47.9795218,"postal_Code":null,"plant_Order":"Hydrophyllaceae"},
{"longitude":71.789345,"latitude":35.863652,"postal_Code":"17200","plant_Order":"Crassulaceae"},
{"longitude":120.663064,"latitude":28.01082,"postal_Code":null,"plant_Order":"Dryopteridaceae"},
{"longitude":116.188408,"latitude":26.141854,"postal_Code":null,"plant_Order":"Geraniaceae"},
{"longitude":119.971302,"latitude":30.033679,"postal_Code":null,"plant_Order":"Brassicaceae"},
{"longitude":-80.2454223,"latitude":25.728011,"postal_Code":"33233","plant_Order":"Cyperaceae"},
{"longitude":-7.7912472,"latitude":40.0233496,"postal_Code":"6185-302","plant_Order":"Caryophyllaceae"},
{"longitude":113.5579698,"latitude":-7.1557925,"postal_Code":null,"plant_Order":"Asteraceae"},
{"longitude":12.930107,"latitude":59.132661,"postal_Code":"661 31","plant_Order":"Fabaceae"},
{"longitude":"-6.75247","latitude":"62.20907","postal_Code":"666","plant_Order":"Physciaceae"},
{"longitude":12.9608246,"latitude":-5.0077715,"postal_Code":null,"plant_Order":"Calycanthaceae"},
{"longitude":111.1280093,"latitude":-6.7047548,"postal_Code":null,"plant_Order":"Cactaceae"},
{"longitude":23.6502521,"latitude":40.4930573,"postal_Code":null,"plant_Order":"Lamiaceae"},
{"longitude":4.6072477,"latitude":46.4830794,"postal_Code":"91574 CEDEX","plant_Order":"Fabaceae"},
{"longitude":-81.0973279,"latitude":32.0056072,"postal_Code":"31416","plant_Order":"Poaceae"},
{"longitude":113.535247,"latitude":24.173306,"postal_Code":null,"plant_Order":"Parmeliaceae"},
{"longitude":43.5462744,"latitude":15.4687838,"postal_Code":null,"plant_Order":"Ericaceae"},
{"longitude":54.9650811,"latitude":51.7362077,"postal_Code":"692580","plant_Order":"Fabaceae"},
{"longitude":-85.9262162,"latitude":41.7396715,"postal_Code":"34615","plant_Order":"Asteraceae"},
{"longitude":118.271111,"latitude":30.164169,"postal_Code":null,"plant_Order":"Rosaceae"},
{"longitude":101.7178316,"latitude":3.1523104,"postal_Code":"50634","plant_Order":"Asteraceae"},
{"longitude":109.374802,"latitude":0.556948,"postal_Code":null,"plant_Order":"Asteraceae"},
{"longitude":140.9596925,"latitude":39.7007906,"postal_Code":"680-1166","plant_Order":"Onagraceae"},
{"longitude":43.4277535,"latitude":45.149066,"postal_Code":"356423","plant_Order":"Fabaceae"},
{"longitude":104.649387,"latitude":23.405908,"postal_Code":null,"plant_Order":"Verbenaceae"},
{"longitude":116.317558,"latitude":39.975999,"postal_Code":null,"plant_Order":"Cyperaceae"},
{"longitude":"21.41556","latitude":"41.53083","postal_Code":"7505","plant_Order":"Fabaceae"},
{"longitude":"123.0979","latitude":"-10.7246","postal_Code":null,"plant_Order":"Rosaceae"},
{"longitude":10.8112885,"latitude":35.7642515,"postal_Code":null,"plant_Order":"Cyperaceae"},
{"longitude":104.071515,"latitude":15.4728312,"postal_Code":"36210","plant_Order":"Hydrangeaceae"},
{"longitude":-65.2299908,"latitude":-26.8327412,"postal_Code":"7406","plant_Order":"Rosaceae"},
{"longitude":122.6733826,"latitude":11.237963,"postal_Code":"5005","plant_Order":"Potamogetonaceae"},
{"longitude":0.7770529,"latitude":9.2610914,"postal_Code":null,"plant_Order":"Brassicaceae"},
{"longitude":116.686439,"latitude":39.871981,"postal_Code":null,"plant_Order":"Cyperaceae"},
{"longitude":119.296482,"latitude":26.074478,"postal_Code":null,"plant_Order":"Cyperaceae"},
{"longitude":122.899983,"latitude":14.18364,"postal_Code":"5048","plant_Order":"Peltigeraceae"},
{"longitude":38.0596975,"latitude":50.2350707,"postal_Code":"309999","plant_Order":"Ranunculaceae"},
{"longitude":2.281825,"latitude":48.7276331,"postal_Code":"91324 CEDEX","plant_Order":"Malvaceae"},
{"longitude":-68.1430273,"latitude":47.0171563,"postal_Code":"117 97","plant_Order":"Asteraceae"},
{"longitude":56.4173346,"latitude":58.3005959,"postal_Code":"618703","plant_Order":"Poaceae"},
{"longitude":124.3654402,"latitude":-8.3162857,"postal_Code":null,"plant_Order":"Pteridaceae"},
{"longitude":20.5190522,"latitude":49.4395013,"postal_Code":"34-460","plant_Order":"Rhamnaceae"},
{"longitude":"108.7231","latitude":"-7.1554","postal_Code":null,"plant_Order":"Loasaceae"},
{"longitude":111.664316,"latitude":27.692542,"postal_Code":null,"plant_Order":"Rhamnaceae"},
{"longitude":-3.2602564,"latitude":47.785421,"postal_Code":"31931 CEDEX 9","plant_Order":"Asteraceae"},
{"longitude":-123.1152602,"latitude":49.1571976,"postal_Code":"V6Y","plant_Order":"Agavaceae"},
{"longitude":17.2602307,"latitude":51.1529103,"postal_Code":"55-093","plant_Order":"Orchidaceae"},
{"longitude":-63.2282569,"latitude":17.6416172,"postal_Code":null,"plant_Order":"Brassicaceae"},
{"longitude":70.3420209,"latitude":42.5447407,"postal_Code":null,"plant_Order":"Bromeliaceae"},
{"longitude":115.744112,"latitude":24.412155,"postal_Code":null,"plant_Order":"Funariaceae"},
{"longitude":-83.540208,"latitude":9.2828806,"postal_Code":"11905","plant_Order":"Hydrophyllaceae"},
{"longitude":-68.4352835,"latitude":9.7076223,"postal_Code":null,"plant_Order":"Caprifoliaceae"},
{"longitude":111.742951,"latitude":29.00431,"postal_Code":null,"plant_Order":"Asteraceae"},
{"longitude":109.0869316,"latitude":-7.0795248,"postal_Code":null,"plant_Order":"Pottiaceae"},
{"longitude":44.643763,"latitude":43.7071168,"postal_Code":"363710","plant_Order":"Scrophulariaceae"},
{"longitude":112.555087,"latitude":27.756339,"postal_Code":null,"plant_Order":"Asteraceae"},
{"longitude":26.4275001,"latitude":52.7634482,"postal_Code":null,"plant_Order":"Rosaceae"},
{"longitude":103.848396,"latitude":30.07728,"postal_Code":null,"plant_Order":"Moraceae"},
{"longitude":25.7035513,"latitude":61.7968844,"postal_Code":"19950","plant_Order":"Scrophulariaceae"},
{"longitude":75.8332947,"latitude":30.9048784,"postal_Code":null,"plant_Order":"Asteraceae"},
{"longitude":-94.2743628,"latitude":30.0435239,"postal_Code":"77713","plant_Order":"Euphorbiaceae"},
{"longitude":42.1602043,"latitude":47.5173564,"postal_Code":"347395","plant_Order":"Ranunculaceae"},
{"longitude":6.1704266,"latitude":51.3869562,"postal_Code":"5914","plant_Order":"Melastomataceae"},
{"longitude":114.463347,"latitude":38.05106,"postal_Code":null,"plant_Order":"Apiaceae"},
{"longitude":-8.0677612,"latitude":41.1437202,"postal_Code":"4640-301","plant_Order":"Mniaceae"},
{"longitude":111.9758606,"latitude":-7.0715432,"postal_Code":null,"plant_Order":"Rosaceae"},
{"longitude":20.6764877,"latitude":-34.069556,"postal_Code":"6743","plant_Order":"Alectoriaceae"},
{"longitude":111.7376178,"latitude":-6.8138954,"postal_Code":null,"plant_Order":"Commelinaceae"},
{"longitude":-56.73246,"latitude":-25.53599,"postal_Code":null,"plant_Order":"Saxifragaceae"},
{"longitude":111.4544179,"latitude":-6.8245964,"postal_Code":null,"plant_Order":"Asteraceae"},
{"longitude":123.7567626,"latitude":10.2593261,"postal_Code":"9023","plant_Order":"Cucurbitaceae"},
{"longitude":120.9921722,"latitude":14.5024732,"postal_Code":"6313","plant_Order":"Geraniaceae"},
{"longitude":113.3423334,"latitude":23.1639193,"postal_Code":null,"plant_Order":"Fabaceae"},
{"longitude":100.7887231,"latitude":27.7244646,"postal_Code":null,"plant_Order":"Euphorbiaceae"},
{"longitude":120.8129183,"latitude":15.1503549,"postal_Code":"2012","plant_Order":"Hydrophyllaceae"},
{"longitude":24.5743709,"latitude":54.2125609,"postal_Code":"65075","plant_Order":"Leitneriaceae"},
{"longitude":111.997187,"latitude":29.316819,"postal_Code":null,"plant_Order":"Asteraceae"},
{"longitude":119.9874642,"latitude":16.0684136,"postal_Code":"4335","plant_Order":"Rosaceae"},
{"longitude":5.6944757,"latitude":49.5048872,"postal_Code":"54412 CEDEX","plant_Order":"Iridaceae"},
{"longitude":35.072538,"latitude":32.370069,"postal_Code":null,"plant_Order":"Araliaceae"},
{"longitude":131.3529666,"latitude":33.4316535,"postal_Code":"872-0511","plant_Order":"Poaceae"},
{"longitude":"111.501","latitude":"-7.1724","postal_Code":null,"plant_Order":"Rosaceae"},
{"longitude":130.2271243,"latitude":-3.4233267,"postal_Code":null,"plant_Order":"Cactaceae"},
{"longitude":108.960747,"latitude":34.26645,"postal_Code":null,"plant_Order":"Cyperaceae"},
{"longitude":23.8131306,"latitude":53.6693538,"postal_Code":null,"plant_Order":"Asteraceae"},
{"longitude":12.5556193,"latitude":41.8535089,"postal_Code":"00174","plant_Order":"Ericaceae"},
{"longitude":107.6392892,"latitude":-6.788236,"postal_Code":null,"plant_Order":"Rosaceae"},
{"longitude":-9.1570572,"latitude":38.6052584,"postal_Code":"2855-358","plant_Order":"Stereocaulaceae"},
{"longitude":114.674065,"latitude":25.871681,"postal_Code":null,"plant_Order":"Caryophyllaceae"},
{"longitude":75.9815939,"latitude":55.2195122,"postal_Code":"249929","plant_Order":"Sematophyllaceae"},
{"longitude":112.469023,"latitude":34.683646,"postal_Code":null,"plant_Order":"Euphorbiaceae"},
{"longitude":-56.0976073,"latitude":-15.5997099,"postal_Code":"78000-000","plant_Order":"Rubiaceae"},
{"longitude":6.1807997,"latitude":49.116169,"postal_Code":"57032 CEDEX 01","plant_Order":"Plumbaginaceae"},
{"longitude":-8.8622841,"latitude":37.1408036,"postal_Code":"8400-661","plant_Order":"Brassicaceae"},
{"longitude":5.0488236,"latitude":47.3080493,"postal_Code":"21604 CEDEX","plant_Order":"Ranunculaceae"},
{"longitude":111.0132542,"latitude":-6.6028802,"postal_Code":null,"plant_Order":"Asteraceae"},
{"longitude":113.016085,"latitude":29.39441,"postal_Code":null,"plant_Order":"Poaceae"},
{"longitude":19.7822663,"latitude":49.6805192,"postal_Code":"34-234","plant_Order":"Hamamelidaceae"},
{"longitude":-73.9503607,"latitude":45.4032761,"postal_Code":"H9X","plant_Order":"Scrophulariaceae"},
{"longitude":119.4048722,"latitude":-9.6352458,"postal_Code":null,"plant_Order":"Brassicaceae"},
{"longitude":-100.5577685,"latitude":28.6517195,"postal_Code":"26095","plant_Order":"Araceae"},
{"longitude":15.5800287,"latitude":49.8691189,"postal_Code":"538 43","plant_Order":"Polygonaceae"},
{"longitude":-73.0287209,"latitude":5.8765279,"postal_Code":"150477","plant_Order":"Pannariaceae"},
{"longitude":90.1046678,"latitude":24.0993658,"postal_Code":"1945","plant_Order":"Loasaceae"},
{"longitude":-8.6671695,"latitude":39.4591,"postal_Code":"2380-015","plant_Order":"Apiaceae"},
{"longitude":87.750232,"latitude":47.520508,"postal_Code":null,"plant_Order":"Hydrophyllaceae"},
{"longitude":120.7601581,"latitude":14.0707852,"postal_Code":"1106","plant_Order":"Stereocaulaceae"},
{"longitude":109.971328,"latitude":18.412445,"postal_Code":null,"plant_Order":"Agavaceae"},
{"longitude":101.8037812,"latitude":16.080957,"postal_Code":"36210","plant_Order":"Lauraceae"},
{"longitude":-8.7978131,"latitude":39.8329746,"postal_Code":"2425-839","plant_Order":"Sterculiaceae"},
{"longitude":114.964696,"latitude":27.087637,"postal_Code":null,"plant_Order":"Aspleniaceae"},
{"longitude":120.013991,"latitude":30.66044,"postal_Code":null,"plant_Order":"Collemataceae"},
{"longitude":-76.6506567,"latitude":-7.1281508,"postal_Code":null,"plant_Order":"Orchidaceae"},
{"longitude":12.8128113,"latitude":49.4349603,"postal_Code":"345 34","plant_Order":"Poaceae"},
{"longitude":80.0161127,"latitude":9.665692,"postal_Code":"40000","plant_Order":"Primulaceae"},
{"longitude":2.2072155,"latitude":49.0178185,"postal_Code":"95154 CEDEX","plant_Order":"Aceraceae"},
{"longitude":-77.3496708,"latitude":21.0525989,"postal_Code":null,"plant_Order":"Orchidaceae"},
{"longitude":137.4474511,"latitude":36.8047032,"postal_Code":"937-0814","plant_Order":"Scrophulariaceae"},
{"longitude":"85.08765","latitude":"52.05206","postal_Code":"659633","plant_Order":"Caryophyllaceae"},
{"longitude":"35.13077","latitude":"32.20427","postal_Code":null,"plant_Order":"Caprifoliaceae"},
{"longitude":4.693265,"latitude":51.7783026,"postal_Code":"3324","plant_Order":"Piperaceae"},
{"longitude":114.837888,"latitude":34.064463,"postal_Code":null,"plant_Order":"Asteraceae"},
{"longitude":120.7213113,"latitude":13.0748879,"postal_Code":"5105","plant_Order":"Fabaceae"},
{"longitude":12.8128113,"latitude":49.4349603,"postal_Code":"345 34","plant_Order":"Polygonaceae"},
{"longitude":-68.113957,"latitude":-38.9459345,"postal_Code":"4624","plant_Order":"Asteraceae"},
{"longitude":-75.7240654,"latitude":22.197186,"postal_Code":null,"plant_Order":"Convolvulaceae"},
{"longitude":110.894824,"latitude":27.487021,"postal_Code":null,"plant_Order":"Asteraceae"},
{"longitude":124.7851264,"latitude":0.9718896,"postal_Code":null,"plant_Order":"Loasaceae"},
{"longitude":20.9258628,"latitude":52.4198041,"postal_Code":"05-122","plant_Order":"Asteraceae"},
{"longitude":23.4060228,"latitude":50.5799404,"postal_Code":"22-610","plant_Order":"Asteraceae"},
{"longitude":-25.3237615,"latitude":37.8513562,"postal_Code":"9625-025","plant_Order":"Peltulaceae"},
{"longitude":107.237743,"latitude":34.363184,"postal_Code":null,"plant_Order":"Juncaceae"},
{"longitude":108.1873407,"latitude":-6.6421188,"postal_Code":null,"plant_Order":"Liliaceae"},
{"longitude":120.7959491,"latitude":14.1843767,"postal_Code":"4124","plant_Order":"Solanaceae"},
{"longitude":-8.7036302,"latitude":39.7306375,"postal_Code":"2420-055","plant_Order":"Cyclanthaceae"},
{"longitude":16.1411813,"latitude":48.9787664,"postal_Code":"671 38","plant_Order":"Asteraceae"},
{"longitude":110.639569,"latitude":21.664044,"postal_Code":null,"plant_Order":"Rubiaceae"},
{"longitude":-93.61,"latitude":41.6,"postal_Code":"50981","plant_Order":"Rosaceae"},
{"longitude":37.1045934,"latitude":46.9125516,"postal_Code":null,"plant_Order":"Rosaceae"},
{"longitude":115.420204,"latitude":23.534915,"postal_Code":null,"plant_Order":"Ditrichaceae"},
{"longitude":23.9915523,"latitude":42.0275439,"postal_Code":"4645","plant_Order":"Brassicaceae"},
{"longitude":27.8272802,"latitude":43.572786,"postal_Code":"9337","plant_Order":"Physciaceae"},
{"longitude":-0.3907558,"latitude":49.1931313,"postal_Code":"14074 CEDEX 5","plant_Order":"Solanaceae"},
{"longitude":117.329949,"latitude":38.371402,"postal_Code":null,"plant_Order":"Fabaceae"},
{"longitude":123.344062,"latitude":41.664757,"postal_Code":null,"plant_Order":"Fabaceae"},
{"longitude":39.9140414,"latitude":45.2759652,"postal_Code":"352320","plant_Order":"Lobariaceae"},
{"longitude":-93.7079745,"latitude":32.4545928,"postal_Code":"71105","plant_Order":"Cyperaceae"},
{"longitude":-76.60003,"latitude":5.40004,"postal_Code":"272027","plant_Order":"Convolvulaceae"},
{"longitude":43.61997,"latitude":43.475292,"postal_Code":"361424","plant_Order":"Cucurbitaceae"},
{"longitude":-105.943638,"latitude":35.683952,"postal_Code":null,"plant_Order":"Rosaceae"},
{"longitude":108.9469437,"latitude":34.2698909,"postal_Code":null,"plant_Order":"Asclepiadaceae"},
{"longitude":90.908217,"latitude":29.820745,"postal_Code":null,"plant_Order":"Asteraceae"},
{"longitude":37.578484,"latitude":49.0440881,"postal_Code":null,"plant_Order":"Polygonaceae"},
{"longitude":107.9739244,"latitude":-7.5002292,"postal_Code":null,"plant_Order":"Rosaceae"},
{"longitude":116.6435436,"latitude":-8.5373782,"postal_Code":null,"plant_Order":"Fabaceae"},
{"longitude":124.6005108,"latitude":11.1300808,"postal_Code":"2513","plant_Order":"Onagraceae"},
{"longitude":102.4265952,"latitude":14.4324917,"postal_Code":"30330","plant_Order":"Liliaceae"},
{"longitude":15.0919158,"latitude":57.4145669,"postal_Code":"574 28","plant_Order":"Malvaceae"},
{"longitude":113.329871,"latitude":28.505971,"postal_Code":null,"plant_Order":"Lamiaceae"},
{"longitude":139.8831403,"latitude":35.7455327,"postal_Code":"930-2111","plant_Order":"Polemoniaceae"},
{"longitude":17.3522939,"latitude":52.279986,"postal_Code":"62-602","plant_Order":"Poaceae"},
{"longitude":121.3872734,"latitude":28.5828673,"postal_Code":null,"plant_Order":"Staphyleaceae"},
{"longitude":60.538576,"latitude":55.7359757,"postal_Code":"456875","plant_Order":"Scrophulariaceae"},
{"longitude":116.555397,"latitude":24.202112,"postal_Code":null,"plant_Order":"Liliaceae"},
{"longitude":-6.374155,"latitude":53.3223974,"postal_Code":"R35","plant_Order":"Poaceae"},
{"longitude":-91.5105745,"latitude":14.6116655,"postal_Code":"10009","plant_Order":"Polygonaceae"},
{"longitude":14.0604538,"latitude":56.0345586,"postal_Code":"291 21","plant_Order":"Euphorbiaceae"},
{"longitude":20.1143093,"latitude":46.0245004,"postal_Code":null,"plant_Order":"Rubiaceae"},
{"longitude":139.7750031,"latitude":36.7003816,"postal_Code":"321-2342","plant_Order":"Ericaceae"},
{"longitude":-69.8887766,"latitude":18.4849304,"postal_Code":"10215","plant_Order":"Lamiaceae"},
{"longitude":70.419388,"latitude":40.2982408,"postal_Code":null,"plant_Order":"Chenopodiaceae"},
{"longitude":17.2614777,"latitude":50.9645521,"postal_Code":"44-247","plant_Order":"Teloschistaceae"},
{"longitude":111.349622,"latitude":27.820674,"postal_Code":null,"plant_Order":"Cucurbitaceae"},
{"longitude":2.0412764,"latitude":48.9330384,"postal_Code":"78304 CEDEX","plant_Order":"Saxifragaceae"},
{"longitude":104.7768894,"latitude":-5.357293,"postal_Code":null,"plant_Order":"Brassicaceae"},
{"longitude":116.081656,"latitude":24.265926,"postal_Code":null,"plant_Order":"Orchidaceae"},
{"longitude":103.160034,"latitude":23.359121,"postal_Code":null,"plant_Order":"Asteraceae"},
{"longitude":-2.9380973,"latitude":35.2922775,"postal_Code":null,"plant_Order":"Cactaceae"},
{"longitude":22.5703984,"latitude":40.9971976,"postal_Code":null,"plant_Order":"Ericaceae"},
{"longitude":105.697472,"latitude":28.590337,"postal_Code":null,"plant_Order":"Vitaceae"},
{"longitude":109.361864,"latitude":32.388854,"postal_Code":null,"plant_Order":"Asteraceae"},
{"longitude":25.1738286,"latitude":48.2629668,"postal_Code":null,"plant_Order":"Cornaceae"},
{"longitude":103.262152,"latitude":36.733165,"postal_Code":null,"plant_Order":"Polemoniaceae"},
{"longitude":-118.4980744,"latitude":34.1985119,"postal_Code":"91406","plant_Order":"Collemataceae"},
{"longitude":121.0327599,"latitude":14.5638721,"postal_Code":"6821","plant_Order":"Asteraceae"},
{"longitude":119.2029497,"latitude":36.7144184,"postal_Code":null,"plant_Order":"Linaceae"},
{"longitude":8.8597095,"latitude":9.7652591,"postal_Code":null,"plant_Order":"Leskeaceae"},
{"longitude":106.6281901,"latitude":10.7900517,"postal_Code":null,"plant_Order":"Cactaceae"},
{"longitude":-8.3929404,"latitude":51.8113447,"postal_Code":"P43","plant_Order":"Scrophulariaceae"},
{"longitude":-70.2559638,"latitude":19.2961742,"postal_Code":"10902","plant_Order":"Scrophulariaceae"},
{"longitude":105.1990045,"latitude":-5.1734862,"postal_Code":null,"plant_Order":"Funariaceae"},
{"longitude":124.4364621,"latitude":-9.5318628,"postal_Code":null,"plant_Order":"Catillariaceae"},
{"longitude":15.1038874,"latitude":44.1316723,"postal_Code":"23275","plant_Order":"Boraginaceae"},
{"longitude":116.05657,"latitude":5.952775,"postal_Code":"88592","plant_Order":"Plantaginaceae"},
{"longitude":121.1375395,"latitude":14.556369,"postal_Code":"8308","plant_Order":"Potamogetonaceae"},
{"longitude":71.3979891,"latitude":42.8983715,"postal_Code":null,"plant_Order":"Fabaceae"},
{"longitude":22.5513331,"latitude":39.0729188,"postal_Code":null,"plant_Order":"Gomphillaceae"},
{"longitude":123.80651,"latitude":8.301719,"postal_Code":"7203","plant_Order":"Pteridaceae"},
{"longitude":124.2469573,"latitude":8.2414293,"postal_Code":"6541","plant_Order":"Poaceae"},
{"longitude":-8.7360619,"latitude":40.3943941,"postal_Code":"3070-125","plant_Order":"Chenopodiaceae"},
{"longitude":-100.2596935,"latitude":25.6775595,"postal_Code":"72124","plant_Order":"Fabaceae"},
{"longitude":120.9969782,"latitude":14.5042265,"postal_Code":"9217","plant_Order":"Juncaceae"},
{"longitude":119.6364468,"latitude":29.1082924,"postal_Code":null,"plant_Order":"Cupressaceae"},
{"longitude":112.6377432,"latitude":-7.6411786,"postal_Code":null,"plant_Order":"Polygonaceae"},
{"longitude":118.2702036,"latitude":-8.3993683,"postal_Code":null,"plant_Order":"Cactaceae"},
{"longitude":30.734995,"latitude":28.4233602,"postal_Code":null,"plant_Order":"Scrophulariaceae"},
{"longitude":27.3331357,"latitude":56.5099223,"postal_Code":null,"plant_Order":"Campanulaceae"},
{"longitude":112.823056,"latitude":22.947532,"postal_Code":null,"plant_Order":"Malvaceae"},
{"longitude":23.5496765,"latitude":60.4624232,"postal_Code":"25390","plant_Order":"Poaceae"},
{"longitude":105.9729255,"latitude":17.8047876,"postal_Code":null,"plant_Order":"Caryophyllaceae"},
{"longitude":-118.364791,"latitude":34.0567271,"postal_Code":null,"plant_Order":"Urticaceae"},
{"longitude":111.5140386,"latitude":-6.791629,"postal_Code":null,"plant_Order":"Asteraceae"},
{"longitude":14.418571,"latitude":67.286069,"postal_Code":"8010","plant_Order":"Ranunculaceae"},
{"longitude":"113.4221","latitude":"24.02009","postal_Code":null,"plant_Order":"Hydrophyllaceae"},
{"longitude":123.4572574,"latitude":13.1870854,"postal_Code":"4405","plant_Order":"Commelinaceae"},
{"longitude":-69.7912411,"latitude":18.9436472,"postal_Code":"10136","plant_Order":"Equisetaceae"},
{"longitude":112.0863874,"latitude":-6.9002853,"postal_Code":null,"plant_Order":"Cyperaceae"},
{"longitude":103.7089573,"latitude":18.0313661,"postal_Code":"43180","plant_Order":"Iridaceae"},
{"longitude":109.6795545,"latitude":-6.8762522,"postal_Code":null,"plant_Order":"Grimmiaceae"},
{"longitude":45.1658261,"latitude":-21.680817,"postal_Code":null,"plant_Order":"Liliaceae"},
{"longitude":-3.9878427,"latitude":16.0271237,"postal_Code":null,"plant_Order":"Acanthaceae"},
{"longitude":16.0186245,"latitude":53.5281012,"postal_Code":"78-524","plant_Order":"Fabaceae"},
{"longitude":-41.4673741,"latitude":-7.0776163,"postal_Code":"64600-000","plant_Order":"Hypnaceae"},
{"longitude":-43.4112394,"latitude":-13.2513786,"postal_Code":"47600-000","plant_Order":"Ericaceae"},
{"longitude":37.4494636,"latitude":9.0144539,"postal_Code":null,"plant_Order":"Euphorbiaceae"},
{"longitude":-84.1329595,"latitude":35.9787718,"postal_Code":"37931","plant_Order":"Dryopteridaceae"},
{"longitude":112.527551,"latitude":23.544205,"postal_Code":null,"plant_Order":"Asteraceae"},
{"longitude":104.020289,"latitude":1.135959,"postal_Code":null,"plant_Order":"Solanaceae"},
{"longitude":49.7013486,"latitude":34.0953553,"postal_Code":null,"plant_Order":"Fabaceae"},
{"longitude":-71.5298386,"latitude":-41.9430504,"postal_Code":"8430","plant_Order":"Polemoniaceae"},
{"longitude":-76.8951551,"latitude":1.6135167,"postal_Code":"521028","plant_Order":"Campanulaceae"},
{"longitude":120.5244987,"latitude":16.1391267,"postal_Code":"2437","plant_Order":"Selaginellaceae"},
{"longitude":-8.308171,"latitude":41.2681051,"postal_Code":"4620-207","plant_Order":"Fabaceae"},
{"longitude":-61.0797039,"latitude":-27.0900609,"postal_Code":"3722","plant_Order":"Euphorbiaceae"},
{"longitude":121.532286,"latitude":31.236833,"postal_Code":null,"plant_Order":"Fabaceae"},
{"longitude":-8.8036223,"latitude":38.6099176,"postal_Code":"2950-127","plant_Order":"Loganiaceae"},
{"longitude":104.622995,"latitude":27.939395,"postal_Code":null,"plant_Order":"Dennstaedtiaceae"},
{"longitude":112.453926,"latitude":34.620202,"postal_Code":null,"plant_Order":"Scrophulariaceae"},
{"longitude":20.9571249,"latitude":50.9409245,"postal_Code":"26-010","plant_Order":"Onagraceae"},
{"longitude":12.5375058,"latitude":55.6817886,"postal_Code":"1950","plant_Order":"Asteraceae"},
{"longitude":"115.2298","latitude":"-8.5067","postal_Code":null,"plant_Order":"Stictidaceae"},
{"longitude":122.597251,"latitude":11.427407,"postal_Code":"5807","plant_Order":"Opegraphaceae"},
{"longitude":106.834805,"latitude":33.157445,"postal_Code":null,"plant_Order":"Parmeliaceae"},
{"longitude":18.8237103,"latitude":45.1839187,"postal_Code":"32251","plant_Order":"Asteraceae"},
{"longitude":7.413802,"latitude":11.9313228,"postal_Code":null,"plant_Order":"Scrophulariaceae"},
{"longitude":23.1342184,"latitude":40.7576842,"postal_Code":null,"plant_Order":"Lamiaceae"},
{"longitude":121.0327599,"latitude":14.5638721,"postal_Code":"6821","plant_Order":"Fabaceae"},
{"longitude":27.6842905,"latitude":55.1391321,"postal_Code":null,"plant_Order":"Gentianaceae"},
{"longitude":116.365867,"latitude":39.912288,"postal_Code":null,"plant_Order":"Bruchiaceae"},
{"longitude":-47.3853435,"latitude":-22.3595631,"postal_Code":"13600-000","plant_Order":"Theaceae"},
{"longitude":150.8632131,"latitude":59.9000274,"postal_Code":"685918","plant_Order":"Lamiaceae"},
{"longitude":70.7168469,"latitude":36.6357455,"postal_Code":null,"plant_Order":"Fagaceae"},
{"longitude":"113.9564","latitude":"-7.0353","postal_Code":null,"plant_Order":"Polytrichaceae"},
{"longitude":"21.32667","latitude":"55.55361","postal_Code":"96047","plant_Order":"Brassicaceae"},
{"longitude":21.6323072,"latitude":62.9197246,"postal_Code":"44950","plant_Order":"Cyperaceae"},
{"longitude":"121.60617","latitude":"14.63571","postal_Code":"1535","plant_Order":"Liliaceae"},
{"longitude":112.5394091,"latitude":-8.0916546,"postal_Code":null,"plant_Order":"Poaceae"},
{"longitude":100.22775,"latitude":26.855047,"postal_Code":null,"plant_Order":"Juncaceae"},
{"longitude":-77.0852258,"latitude":38.9374808,"postal_Code":"20016","plant_Order":"Rhamnaceae"},
{"longitude":142.878669,"latitude":49.291889,"postal_Code":"694230","plant_Order":"Solanaceae"},
{"longitude":18.509675,"latitude":52.9961639,"postal_Code":"87-165","plant_Order":"Euphorbiaceae"},
{"longitude":-8.1699995,"latitude":41.2115446,"postal_Code":"4635-133","plant_Order":"Apiaceae"},
{"longitude":139.4480166,"latitude":35.4957441,"postal_Code":"246-0038","plant_Order":"Asteraceae"},
{"longitude":-88.3803792,"latitude":13.9967823,"postal_Code":null,"plant_Order":"Lecanoraceae"},
{"longitude":111.9641728,"latitude":-8.091221,"postal_Code":null,"plant_Order":"Rosaceae"},
{"longitude":19.0158217,"latitude":47.5039111,"postal_Code":"1122","plant_Order":"Betulaceae"},
{"longitude":121.2238236,"latitude":16.6500928,"postal_Code":"3605","plant_Order":"Lecanoraceae"},
{"longitude":-40.2680075,"latitude":-8.3165281,"postal_Code":"56215-000","plant_Order":"Fabaceae"},
{"longitude":109.263397,"latitude":-7.158502,"postal_Code":null,"plant_Order":"Alectoriaceae"},
{"longitude":27.930686,"latitude":47.7820865,"postal_Code":"MD-3917","plant_Order":"Rosaceae"},
{"longitude":21.0432139,"latitude":50.0994713,"postal_Code":"33-140","plant_Order":"Lamiaceae"},
{"longitude":114.723904,"latitude":38.320362,"postal_Code":null,"plant_Order":"Lamiaceae"},
{"longitude":-88.2424674,"latitude":14.2811192,"postal_Code":null,"plant_Order":"Oxalidaceae"},
{"longitude":47.3722118,"latitude":54.2907459,"postal_Code":"433201","plant_Order":"Lobariaceae"},
{"longitude":125.596794,"latitude":8.956049,"postal_Code":"3710","plant_Order":"Poaceae"},
{"longitude":106.27613,"latitude":29.972084,"postal_Code":null,"plant_Order":"Gesneriaceae"},
{"longitude":66.0285106,"latitude":37.8163881,"postal_Code":null,"plant_Order":"Cyperaceae"},
{"longitude":20.3555646,"latitude":44.8532094,"postal_Code":null,"plant_Order":"Teloschistaceae"},
{"longitude":-45.2325476,"latitude":-21.2335652,"postal_Code":"37250-000","plant_Order":"Physciaceae"},
{"longitude":118.9353968,"latitude":29.5530941,"postal_Code":null,"plant_Order":"Apiaceae"},
{"longitude":32.9705266,"latitude":34.9407863,"postal_Code":null,"plant_Order":"Rubiaceae"},
{"longitude":-25.2644959,"latitude":37.8524958,"postal_Code":"9630-015","plant_Order":"Caryophyllaceae"},
{"longitude":"34.97442","latitude":"31.52057","postal_Code":null,"plant_Order":"Fabaceae"},
{"longitude":82.353656,"latitude":44.840524,"postal_Code":null,"plant_Order":"Arthoniaceae"},
{"longitude":77.0324649,"latitude":10.998264,"postal_Code":"532663","plant_Order":"Solanaceae"},
{"longitude":96.600578,"latitude":31.210297,"postal_Code":null,"plant_Order":"Poaceae"},
{"longitude":110.8910556,"latitude":-7.6977621,"postal_Code":null,"plant_Order":"Asteraceae"},
{"longitude":73.4895102,"latitude":31.5707334,"postal_Code":"39630","plant_Order":"Leptodontaceae"},
{"longitude":108.64553,"latitude":-6.8497713,"postal_Code":null,"plant_Order":"Ectolechiaceae"},
{"longitude":30.4566069,"latitude":-25.1057553,"postal_Code":"1126","plant_Order":"Lycopodiaceae"},
{"longitude":-37.2544065,"latitude":-10.9666739,"postal_Code":"49100-000","plant_Order":"Caryocaraceae"},
{"longitude":18.4025756,"latitude":54.4265348,"postal_Code":"80-209","plant_Order":"Poaceae"},
{"longitude":61.6713386,"latitude":27.1259886,"postal_Code":null,"plant_Order":"Asteraceae"},
{"longitude":65.7110972,"latitude":57.0473862,"postal_Code":"625504","plant_Order":"Rutaceae"},
{"longitude":4.464398,"latitude":10.332444,"postal_Code":null,"plant_Order":"Polygalaceae"},
{"longitude":-7.4731648,"latitude":41.741781,"postal_Code":"5400-006","plant_Order":"Asteraceae"},
{"longitude":137.7446478,"latitude":34.7326539,"postal_Code":"435-0055","plant_Order":"Fabaceae"},
{"longitude":-99.2058279,"latitude":19.4805668,"postal_Code":"64103","plant_Order":"Asteraceae"},
{"longitude":111.7033357,"latitude":-7.1293143,"postal_Code":null,"plant_Order":"Magnoliaceae"},
{"longitude":35.3466253,"latitude":-14.844135,"postal_Code":null,"plant_Order":"Poaceae"},
{"longitude":117.9249002,"latitude":35.8939566,"postal_Code":null,"plant_Order":"Boraginaceae"},
{"longitude":25.5327587,"latitude":41.9310069,"postal_Code":"4999","plant_Order":"Polemoniaceae"},
{"longitude":-83.7942551,"latitude":36.0268006,"postal_Code":"37924","plant_Order":"Rubiaceae"},
{"longitude":99.9788481,"latitude":9.7421342,"postal_Code":"22110","plant_Order":"Parmeliaceae"},
{"longitude":4.3686291,"latitude":43.8317876,"postal_Code":"84042 CEDEX 9","plant_Order":"Sphagnaceae"},
{"longitude":115.038835,"latitude":30.20003,"postal_Code":null,"plant_Order":"Onagraceae"},
{"longitude":117.7901088,"latitude":-8.1401564,"postal_Code":null,"plant_Order":"Physciaceae"},
{"longitude":139.8352678,"latitude":38.6784499,"postal_Code":"997-0334","plant_Order":"Pottiaceae"},
{"longitude":100.3674801,"latitude":6.1244023,"postal_Code":"05552","plant_Order":"Brassicaceae"},
{"longitude":106.864397,"latitude":34.89305,"postal_Code":null,"plant_Order":"Polemoniaceae"},
{"longitude":113.39277,"latitude":22.517585,"postal_Code":null,"plant_Order":"Asteraceae"},
{"longitude":13.3500652,"latitude":4.5778968,"postal_Code":null,"plant_Order":"Liliaceae"},
{"longitude":30.8190797,"latitude":-27.4249796,"postal_Code":"3185","plant_Order":"Passifloraceae"},
{"longitude":19.5270566,"latitude":40.996725,"postal_Code":null,"plant_Order":"Myrtaceae"},
{"longitude":8.9354031,"latitude":53.0903178,"postal_Code":"28355","plant_Order":"Asteraceae"},
{"longitude":22.5169584,"latitude":50.3068281,"postal_Code":"37-303","plant_Order":"Cyperaceae"},
{"longitude":23.611537,"latitude":1.2408277,"postal_Code":null,"plant_Order":"Fabaceae"},
{"longitude":-7.2584,"latitude":52.655184,"postal_Code":"R95","plant_Order":"Dryopteridaceae"},
{"longitude":17.876832,"latitude":49.2809997,"postal_Code":"763 15","plant_Order":"Euphorbiaceae"},
{"longitude":104.372949,"latitude":27.018693,"postal_Code":null,"plant_Order":"Malvaceae"},
{"longitude":124.1041803,"latitude":9.7044463,"postal_Code":"6317","plant_Order":"Asteraceae"},
{"longitude":-77.0391754,"latitude":39.0041504,"postal_Code":"20910","plant_Order":"Hydrangeaceae"},
{"longitude":18.191303,"latitude":51.1981241,"postal_Code":"98-430","plant_Order":"Liliaceae"},
{"longitude":18.5699721,"latitude":49.9890993,"postal_Code":"44-323","plant_Order":"Ephedraceae"},
{"longitude":-99.6494479,"latitude":19.2874648,"postal_Code":"87785","plant_Order":"Hypnaceae"},
{"longitude":127.6371628,"latitude":37.2980237,"postal_Code":null,"plant_Order":"Cyperaceae"},
{"longitude":-63.9004303,"latitude":-8.7611605,"postal_Code":"78900-000","plant_Order":"Fabaceae"},
{"longitude":-8.5047067,"latitude":51.8830697,"postal_Code":"Y25","plant_Order":"Ericaceae"},
{"longitude":37.6031799,"latitude":54.2474065,"postal_Code":"301536","plant_Order":"Piperaceae"},
{"longitude":34.2747004,"latitude":-0.0998238,"postal_Code":null,"plant_Order":"Lamiaceae"},
{"longitude":122.0389128,"latitude":11.7367016,"postal_Code":"5712","plant_Order":"Amaranthaceae"},
{"longitude":55.2756505,"latitude":30.8707353,"postal_Code":null,"plant_Order":"Scrophulariaceae"},
{"longitude":1.9038837,"latitude":43.0429124,"postal_Code":"69239 CEDEX 02","plant_Order":"Brassicaceae"},
{"longitude":"33.52638","latitude":"48.97974","postal_Code":null,"plant_Order":"Collemataceae"},
{"longitude":-68.8733205,"latitude":-32.93645,"postal_Code":"5413","plant_Order":"Convolvulaceae"},
{"longitude":140.3605429,"latitude":35.5599466,"postal_Code":"289-1343","plant_Order":"Poaceae"},
{"longitude":118.036787,"latitude":36.740856,"postal_Code":null,"plant_Order":"Brachytheciaceae"},
{"longitude":139.7750031,"latitude":36.7003816,"postal_Code":"321-2342","plant_Order":"Rosaceae"},
{"longitude":109.989454,"latitude":29.483676,"postal_Code":null,"plant_Order":"Asteraceae"},
{"longitude":10.7652478,"latitude":59.9381414,"postal_Code":"0472","plant_Order":"Rutaceae"},
{"longitude":106.0111203,"latitude":-6.0025343,"postal_Code":null,"plant_Order":"Orchidaceae"},
{"longitude":112.052296,"latitude":21.820325,"postal_Code":null,"plant_Order":"Fuscideaceae"},
{"longitude":-67.5305258,"latitude":-45.8802629,"postal_Code":"5461","plant_Order":"Asteraceae"},
{"longitude":-8.628833,"latitude":41.8815942,"postal_Code":"4940-025","plant_Order":"Cyperaceae"},
{"longitude":111.9021476,"latitude":-8.1209842,"postal_Code":null,"plant_Order":"Juglandaceae"},
{"longitude":2.2817978,"latitude":48.8927579,"postal_Code":"92691 CEDEX","plant_Order":"Rosaceae"},
{"longitude":129.2247477,"latitude":35.8561719,"postal_Code":null,"plant_Order":"Boraginaceae"},
{"longitude":101.6271544,"latitude":17.8759173,"postal_Code":"42110","plant_Order":"Odontotremataceae"},
{"longitude":115.1281425,"latitude":-8.5436245,"postal_Code":null,"plant_Order":"Pyrenulaceae"},
{"longitude":38.9381031,"latitude":-7.7256069,"postal_Code":null,"plant_Order":"Liliaceae"},
{"longitude":-44.2097085,"latitude":-13.4017106,"postal_Code":"47640-000","plant_Order":"Caprifoliaceae"},
{"longitude":13.6405292,"latitude":45.4698284,"postal_Code":"6333","plant_Order":"Saxifragaceae"},
{"longitude":112.5036493,"latitude":-6.9250071,"postal_Code":null,"plant_Order":"Scrophulariaceae"},
{"longitude":144.9629556,"latitude":-37.7204693,"postal_Code":"1109","plant_Order":"Rosaceae"},
{"longitude":93.795126,"latitude":31.896817,"postal_Code":null,"plant_Order":"Scrophulariaceae"},
{"longitude":120.645158,"latitude":31.138677,"postal_Code":null,"plant_Order":"Brassicaceae"},
{"longitude":19.698964,"latitude":53.996769,"postal_Code":"14-401","plant_Order":"Papaveraceae"},
{"longitude":109.963338,"latitude":39.822507,"postal_Code":null,"plant_Order":"Caryophyllaceae"},
{"longitude":21.9002712,"latitude":42.5450345,"postal_Code":null,"plant_Order":"Fabaceae"},
{"longitude":0.768419,"latitude":48.2660539,"postal_Code":"36009 CEDEX","plant_Order":"Rhamnaceae"},
{"longitude":106.8945456,"latitude":-6.712398,"postal_Code":null,"plant_Order":"Cactaceae"},
{"longitude":173.138978,"latitude":1.386973,"postal_Code":null,"plant_Order":"Rutaceae"},
{"longitude":113.121435,"latitude":23.021478,"postal_Code":null,"plant_Order":"Juncaceae"},
{"longitude":107.5847246,"latitude":-6.9580488,"postal_Code":null,"plant_Order":"Polemoniaceae"},
{"longitude":129.508945,"latitude":42.891255,"postal_Code":null,"plant_Order":"Umbilicariaceae"},
{"longitude":18.0449791,"latitude":49.4817883,"postal_Code":"756 51","plant_Order":"Salicaceae"},
{"longitude":140.0392974,"latitude":38.0818216,"postal_Code":"993-0031","plant_Order":"Pteridaceae"},
{"longitude":108.5244179,"latitude":-6.9592076,"postal_Code":null,"plant_Order":"Asteraceae"},
{"longitude":23.2565415,"latitude":56.3588787,"postal_Code":"84019","plant_Order":"Polygonaceae"},
{"longitude":16.7714628,"latitude":49.19177,"postal_Code":"664 05","plant_Order":"Violaceae"},
{"longitude":116.857837,"latitude":40.231962,"postal_Code":null,"plant_Order":"Orthotrichaceae"},
{"longitude":117.059698,"latitude":39.197212,"postal_Code":null,"plant_Order":"Rosaceae"},
{"longitude":44.1241666,"latitude":40.1427498,"postal_Code":null,"plant_Order":"Pertusariaceae"},
{"longitude":96.85942,"latitude":29.183761,"postal_Code":null,"plant_Order":"Crossosomataceae"},
{"longitude":21.1842054,"latitude":44.6208353,"postal_Code":null,"plant_Order":"Fabaceae"},
{"longitude":130.529246,"latitude":33.4351922,"postal_Code":"841-0205","plant_Order":"Fabaceae"},
{"longitude":114.392392,"latitude":36.097577,"postal_Code":null,"plant_Order":"Aspleniaceae"},
{"longitude":115.319842,"latitude":34.000317,"postal_Code":null,"plant_Order":"Commelinaceae"},
{"longitude":-8.5173008,"latitude":39.664138,"postal_Code":"2435-553","plant_Order":"Loasaceae"},
{"longitude":7.1574128,"latitude":62.7370249,"postal_Code":"6413","plant_Order":"Convolvulaceae"},
{"longitude":-52.5852334,"latitude":-26.7416528,"postal_Code":"89862-000","plant_Order":"Polygalaceae"},
{"longitude":114.74638,"latitude":23.788392,"postal_Code":null,"plant_Order":"Saxifragaceae"},
{"longitude":18.11328,"latitude":52.75378,"postal_Code":"88-160","plant_Order":"Asteraceae"},
{"longitude":107.4676861,"latitude":-6.4510633,"postal_Code":null,"plant_Order":"Trapaceae"},
{"longitude":-39.6105142,"latitude":-3.741645,"postal_Code":"62600-000","plant_Order":"Parmeliaceae"},
{"longitude":120.6190252,"latitude":17.622182,"postal_Code":"2807","plant_Order":"Poaceae"},
{"longitude":-6.1920933,"latitude":53.3916434,"postal_Code":"D17","plant_Order":"Cannabaceae"},
{"longitude":151.2502275,"latitude":-33.7974423,"postal_Code":"1196","plant_Order":"Poaceae"},
{"longitude":17.6311856,"latitude":54.2877219,"postal_Code":"77-122","plant_Order":"Juncaceae"},
{"longitude":85.6264576,"latitude":44.3338201,"postal_Code":"152891","plant_Order":"Ranunculaceae"},
{"longitude":121.0507098,"latitude":-8.6841275,"postal_Code":null,"plant_Order":"Asteraceae"},
{"longitude":121.157258,"latitude":13.950488,"postal_Code":"4217","plant_Order":"Onagraceae"},
{"longitude":124.7445365,"latitude":9.1249562,"postal_Code":"9103","plant_Order":"Fabaceae"},
{"longitude":104.5946633,"latitude":17.5767798,"postal_Code":"48120","plant_Order":"Liliaceae"},
{"longitude":-40.8605209,"latitude":-19.8022734,"postal_Code":"29690-000","plant_Order":"Violaceae"},
{"longitude":-70.297951,"latitude":9.017718,"postal_Code":null,"plant_Order":"Convolvulaceae"},
{"longitude":107.130861,"latitude":-6.28433,"postal_Code":null,"plant_Order":"Polemoniaceae"},
{"longitude":-87.5470024,"latitude":13.4710669,"postal_Code":null,"plant_Order":"Lecanoraceae"},
{"longitude":121.6180515,"latitude":17.4792157,"postal_Code":"3808","plant_Order":"Thelotremataceae"},
{"longitude":-31.1338071,"latitude":39.4582827,"postal_Code":"9970-305","plant_Order":"Scrophulariaceae"},
{"longitude":111.5811123,"latitude":-6.664163,"postal_Code":null,"plant_Order":"Asteraceae"},
{"longitude":-45.2515461,"latitude":-21.692578,"postal_Code":"37410-000","plant_Order":"Poaceae"},
{"longitude":-57.5476145,"latitude":-24.9670799,"postal_Code":null,"plant_Order":"Tamaricaceae"},
{"longitude":"124.25333","latitude":"7.2225","postal_Code":"1067","plant_Order":"Campanulaceae"},
{"longitude":-8.3482785,"latitude":41.3575049,"postal_Code":"4755-192","plant_Order":"Onagraceae"},
{"longitude":124.1527051,"latitude":39.863008,"postal_Code":null,"plant_Order":"Pinaceae"},
{"longitude":139.2101113,"latitude":36.1336188,"postal_Code":"369-1241","plant_Order":"Polypodiaceae"},
{"longitude":-69.1804708,"latitude":9.5503646,"postal_Code":null,"plant_Order":"Fissidentaceae"},
{"longitude":2.2718631,"latitude":48.8120404,"postal_Code":"92174 CEDEX","plant_Order":"Papaveraceae"},
{"longitude":-37.0730823,"latitude":-10.9472468,"postal_Code":"49000-000","plant_Order":"Asteraceae"},
{"longitude":-49.6503106,"latitude":-17.9659326,"postal_Code":"75600-000","plant_Order":"Hydrangeaceae"},
{"longitude":121.869339,"latitude":29.476705,"postal_Code":null,"plant_Order":"Liliaceae"},
{"longitude":100.7953911,"latitude":18.745638,"postal_Code":"10250","plant_Order":"Campanulaceae"},
{"longitude":11.9854751,"latitude":58.1858939,"postal_Code":"459 91","plant_Order":"Verrucariaceae"},
{"longitude":87.2799316,"latitude":53.2140133,"postal_Code":"652900","plant_Order":"Asteraceae"},
{"longitude":18.7067796,"latitude":63.3063621,"postal_Code":"891 41","plant_Order":"Cactaceae"},
{"longitude":17.432378,"latitude":50.8481261,"postal_Code":"20-282","plant_Order":"Myrtaceae"},
{"longitude":110.6422198,"latitude":-7.355927,"postal_Code":null,"plant_Order":"Juncaceae"},
{"longitude":25.4074899,"latitude":53.4651358,"postal_Code":null,"plant_Order":"Poaceae"},
{"longitude":115.1918802,"latitude":-8.3765619,"postal_Code":null,"plant_Order":"Poaceae"},
{"longitude":100.8211626,"latitude":20.9611497,"postal_Code":null,"plant_Order":"Alismataceae"},
{"longitude":130.4936331,"latitude":33.5147935,"postal_Code":"818-0138","plant_Order":"Asteraceae"},
{"longitude":108.317445,"latitude":34.513586,"postal_Code":null,"plant_Order":"Juglandaceae"},
{"longitude":119.823308,"latitude":31.340637,"postal_Code":null,"plant_Order":"Fabaceae"},
{"longitude":112.453926,"latitude":34.620202,"postal_Code":null,"plant_Order":"Boraginaceae"},
{"longitude":21.0458599,"latitude":49.712424,"postal_Code":"38-322","plant_Order":"Lamiaceae"},
{"longitude":125.9063009,"latitude":47.173426,"postal_Code":null,"plant_Order":"Boraginaceae"},
{"longitude":-87.8445954,"latitude":44.351935,"postal_Code":"1098","plant_Order":"Ericaceae"},
{"longitude":116.3877778,"latitude":39.7825,"postal_Code":null,"plant_Order":"Fabaceae"},
{"longitude":-7.5303251,"latitude":39.5955323,"postal_Code":"6050-435","plant_Order":"Orobanchaceae"},
{"longitude":-0.626516,"latitude":46.817914,"postal_Code":"04104 CEDEX","plant_Order":"Ranunculaceae"},
{"longitude":122.9705266,"latitude":-8.3422456,"postal_Code":null,"plant_Order":"Ophioglossaceae"},
{"longitude":83.3748613,"latitude":54.4555308,"postal_Code":"633216","plant_Order":"Meliaceae"},
{"longitude":6.1367039,"latitude":62.4698318,"postal_Code":"6005","plant_Order":"Asteraceae"},
{"longitude":108.019549,"latitude":35.819227,"postal_Code":null,"plant_Order":"Rubiaceae"},
{"longitude":-8.5857044,"latitude":41.5106099,"postal_Code":"4755-046","plant_Order":"Calymperaceae"},
{"longitude":119.8805782,"latitude":-8.4766365,"postal_Code":null,"plant_Order":"Lamiaceae"},
{"longitude":-50.5981252,"latitude":-17.8119748,"postal_Code":"75920-000","plant_Order":"Myriniaceae"},
{"longitude":15.7019393,"latitude":49.374032,"postal_Code":"588 22","plant_Order":"Euphorbiaceae"},
{"longitude":120.5877148,"latitude":16.0655913,"postal_Code":"2436","plant_Order":"Juncaceae"},
{"longitude":116.2398367,"latitude":40.2023282,"postal_Code":null,"plant_Order":"Brassicaceae"},
{"longitude":72.0577733,"latitude":34.0724454,"postal_Code":"24081","plant_Order":"Staphyleaceae"},
{"longitude":-84.39,"latitude":33.76,"postal_Code":"30343","plant_Order":"Asteraceae"},
{"longitude":106.7647475,"latitude":-6.183459,"postal_Code":null,"plant_Order":"Brassicaceae"},
{"longitude":155.6376301,"latitude":-6.2204747,"postal_Code":null,"plant_Order":"Brassicaceae"},
{"longitude":13.209918,"latitude":56.9940675,"postal_Code":"314 32","plant_Order":"Arthoniaceae"},
{"longitude":115.9706447,"latitude":40.457454,"postal_Code":null,"plant_Order":"Ranunculaceae"},
{"longitude":15.5190353,"latitude":46.2287025,"postal_Code":"3240","plant_Order":"Dicranaceae"},
{"longitude":-7.9607378,"latitude":41.4850622,"postal_Code":"4860-045","plant_Order":"Poaceae"},
{"longitude":116.251947,"latitude":29.731101,"postal_Code":null,"plant_Order":"Myrsinaceae"},
{"longitude":15.5189476,"latitude":56.6226418,"postal_Code":"361 31","plant_Order":"Ranunculaceae"},
{"longitude":12.0575469,"latitude":9.0528821,"postal_Code":null,"plant_Order":"Scrophulariaceae"},
{"longitude":39.0085346,"latitude":8.7346496,"postal_Code":null,"plant_Order":"Convolvulaceae"},
{"longitude":100.267638,"latitude":25.606486,"postal_Code":null,"plant_Order":"Asteraceae"},
{"longitude":"35.14844","latitude":"32.03213","postal_Code":null,"plant_Order":"Cladoniaceae"},
{"longitude":86.145298,"latitude":41.764115,"postal_Code":null,"plant_Order":"Rosaceae"},
{"longitude":15.5886328,"latitude":49.5024864,"postal_Code":"582 53","plant_Order":"Fabaceae"},
{"longitude":106.724426,"latitude":26.604594,"postal_Code":null,"plant_Order":"Piperaceae"},
{"longitude":108.9145675,"latitude":11.4702151,"postal_Code":null,"plant_Order":"Xyridaceae"},
{"longitude":-9.3300248,"latitude":38.7063132,"postal_Code":"2775-381","plant_Order":"Asteraceae"},
{"longitude":5.4757709,"latitude":52.5077777,"postal_Code":"8214","plant_Order":"Brassicaceae"},
{"longitude":2.6302303,"latitude":48.8351221,"postal_Code":"77708 CEDEX 4","plant_Order":"Poaceae"},
{"longitude":112.4351068,"latitude":-6.9158643,"postal_Code":null,"plant_Order":"Portulacaceae"},
{"longitude":-73.858939,"latitude":45.448409,"postal_Code":"H9J","plant_Order":"Polemoniaceae"},
{"longitude":107.621139,"latitude":29.98784,"postal_Code":null,"plant_Order":"Hypnaceae"},
{"longitude":101.505519,"latitude":32.650887,"postal_Code":null,"plant_Order":"Euphorbiaceae"},
{"longitude":-7.8210803,"latitude":41.2096879,"postal_Code":"5030-304","plant_Order":"Scrophulariaceae"},
{"longitude":21.888524,"latitude":50.643436,"postal_Code":"39-410","plant_Order":"Acarosporaceae"},
{"longitude":34.2747004,"latitude":-0.0998238,"postal_Code":null,"plant_Order":"Berberidaceae"},
{"longitude":"-101.66766","latitude":"50.13332","postal_Code":"H4J","plant_Order":"Scrophulariaceae"},
{"longitude":59.8937563,"latitude":57.5038558,"postal_Code":"624155","plant_Order":"Fabaceae"},
{"longitude":-48.6122723,"latitude":-17.7472494,"postal_Code":"75690-000","plant_Order":"Fagaceae"},
{"longitude":102.913526,"latitude":35.0032213,"postal_Code":null,"plant_Order":"Rosaceae"},
{"longitude":114.382611,"latitude":38.036815,"postal_Code":null,"plant_Order":"Rubiaceae"},
{"longitude":22.5169584,"latitude":50.3068281,"postal_Code":"37-303","plant_Order":"Brassicaceae"},
{"longitude":20.1667579,"latitude":50.401499,"postal_Code":"32-087","plant_Order":"Gomphillaceae"},
{"longitude":46.638308,"latitude":41.603085,"postal_Code":null,"plant_Order":"Hydrophyllaceae"},
{"longitude":133.7613311,"latitude":35.4499037,"postal_Code":"682-0953","plant_Order":"Tiliaceae"},
{"longitude":106.0728356,"latitude":20.1788256,"postal_Code":null,"plant_Order":"Apiaceae"},
{"longitude":34.374358,"latitude":53.3249623,"postal_Code":"241904","plant_Order":"Cladoniaceae"},
{"longitude":111.793796,"latitude":27.632803,"postal_Code":null,"plant_Order":"Rosaceae"},
{"longitude":22.9882406,"latitude":53.8386511,"postal_Code":"05-090","plant_Order":"Ranunculaceae"},
{"longitude":17.0216706,"latitude":48.1875683,"postal_Code":"841 01","plant_Order":"Liliaceae"},
{"longitude":20.057961,"latitude":50.58999,"postal_Code":"41-221","plant_Order":"Oleaceae"},
{"longitude":17.164335,"latitude":49.1063903,"postal_Code":"768 05","plant_Order":"Pottiaceae"},
{"longitude":-8.3404338,"latitude":41.6985084,"postal_Code":"4840-080","plant_Order":"Fagaceae"},
{"longitude":27.8838873,"latitude":-32.5906095,"postal_Code":"4950","plant_Order":"Fabaceae"},
{"longitude":-97.0909561,"latitude":18.8589196,"postal_Code":"94324","plant_Order":"Orchidaceae"},
{"longitude":"113.8512","latitude":"-8.0395","postal_Code":null,"plant_Order":"Apiaceae"},
{"longitude":"121.1244","latitude":"-8.6467","postal_Code":null,"plant_Order":"Poaceae"},
{"longitude":119.8805782,"latitude":-8.4766365,"postal_Code":null,"plant_Order":"Hamamelidaceae"},
{"longitude":123.169189,"latitude":46.666415,"postal_Code":null,"plant_Order":"Euphorbiaceae"},
{"longitude":74.2728564,"latitude":32.4289299,"postal_Code":"51360","plant_Order":"Lentibulariaceae"},
{"longitude":7.4888434,"latitude":48.4621258,"postal_Code":"67214 CEDEX","plant_Order":"Brassicaceae"},
{"longitude":-4.5288016,"latitude":42.0096857,"postal_Code":"34005","plant_Order":"Rubiaceae"},
{"longitude":-71.4306785,"latitude":-14.1007487,"postal_Code":null,"plant_Order":"Lamiaceae"},
{"longitude":-104.794212,"latitude":38.8363582,"postal_Code":"80945","plant_Order":"Polemoniaceae"},
{"longitude":16.0648122,"latitude":49.2001199,"postal_Code":"675 02","plant_Order":"Asteraceae"},
{"longitude":19.2058436,"latitude":29.2187967,"postal_Code":null,"plant_Order":"Rosaceae"},
{"longitude":18.49897,"latitude":52.55106,"postal_Code":"88-230","plant_Order":"Asteraceae"},
{"longitude":35.364579,"latitude":32.082978,"postal_Code":null,"plant_Order":"Caryophyllaceae"},
{"longitude":-50.9706116,"latitude":-22.2592565,"postal_Code":"19600-000","plant_Order":"Asteraceae"},
{"longitude":-95.9964783,"latitude":36.1592882,"postal_Code":"74103","plant_Order":"Portulacaceae"},
{"longitude":-51.2422395,"latitude":-29.7127463,"postal_Code":"93180-000","plant_Order":"Rosaceae"},
{"longitude":-73.1678812,"latitude":-38.7088593,"postal_Code":null,"plant_Order":"Asteraceae"},
{"longitude":138.7970925,"latitude":37.7378509,"postal_Code":"631-0034","plant_Order":"Placynthiaceae"},
{"longitude":18.8188681,"latitude":49.8958515,"postal_Code":"43-520","plant_Order":"Cyperaceae"},
{"longitude":109.879153,"latitude":31.074834,"postal_Code":null,"plant_Order":"Malvaceae"},
{"longitude":40.8758403,"latitude":47.6420762,"postal_Code":"346550","plant_Order":"Ericaceae"},
{"longitude":109.5895384,"latitude":-7.6559369,"postal_Code":null,"plant_Order":"Polemoniaceae"},
{"longitude":-77.0125445,"latitude":38.9273849,"postal_Code":"20310","plant_Order":"Fabaceae"},
{"longitude":15.28454,"latitude":53.5659675,"postal_Code":"72-210","plant_Order":"Rosaceae"},
{"longitude":106.8280147,"latitude":-6.2810348,"postal_Code":null,"plant_Order":"Roccellaceae"},
{"longitude":-37.3477805,"latitude":-5.1841285,"postal_Code":"59600-000","plant_Order":"Melastomataceae"},
{"longitude":-87.485158,"latitude":13.5369065,"postal_Code":null,"plant_Order":"Cucurbitaceae"},
{"longitude":-76.1435915,"latitude":3.095417,"postal_Code":"191569","plant_Order":"Lamiaceae"},
{"longitude":37.8220414,"latitude":-4.3589834,"postal_Code":null,"plant_Order":"Polygonaceae"},
{"longitude":-8.2213311,"latitude":41.1059592,"postal_Code":"4625-007","plant_Order":"Cactaceae"},
{"longitude":43.1270513,"latitude":44.0300904,"postal_Code":"357560","plant_Order":"Euphorbiaceae"},
{"longitude":109.898233,"latitude":31.336174,"postal_Code":null,"plant_Order":"Mniaceae"},
{"longitude":52.350694,"latitude":27.8122083,"postal_Code":null,"plant_Order":"Fabaceae"},
{"longitude":-9.3872558,"latitude":38.7080654,"postal_Code":"2765-343","plant_Order":"Orchidaceae"},
{"longitude":-75.433419,"latitude":2.886246,"postal_Code":"412008","plant_Order":"Pittosporaceae"},
{"longitude":-17.1340519,"latitude":32.7010866,"postal_Code":"9360-413","plant_Order":"Lamiaceae"},
{"longitude":13.6883765,"latitude":11.5218308,"postal_Code":null,"plant_Order":"Liliaceae"},
{"longitude":120.67484,"latitude":27.789796,"postal_Code":null,"plant_Order":"Parmeliaceae"},
{"longitude":119.9712651,"latitude":16.1867243,"postal_Code":"9024","plant_Order":"Plantaginaceae"},
{"longitude":48.5330218,"latitude":37.6205429,"postal_Code":null,"plant_Order":"Bacidiaceae"},
{"longitude":19.7751366,"latitude":52.5363656,"postal_Code":"09-410","plant_Order":"Iridaceae"},
{"longitude":16.7305754,"latitude":45.4949897,"postal_Code":"44320","plant_Order":"Anemiaceae"},
{"longitude":115.865746,"latitude":34.393136,"postal_Code":null,"plant_Order":"Asteraceae"},
{"longitude":-80.1058665,"latitude":26.4068381,"postal_Code":"33499","plant_Order":"Scrophulariaceae"},
{"longitude":17.9265186,"latitude":50.6627543,"postal_Code":"46-020","plant_Order":"Fabaceae"},
{"longitude":-75.803848,"latitude":2.266733,"postal_Code":"414068","plant_Order":"Crassulaceae"},
{"longitude":-79.273304,"latitude":43.899227,"postal_Code":"L6E","plant_Order":"Asteraceae"},
{"longitude":110.9387418,"latitude":-7.4703872,"postal_Code":null,"plant_Order":"Bryaceae"},
{"longitude":37.7066623,"latitude":55.7479383,"postal_Code":"396336","plant_Order":"Aizoaceae"},
{"longitude":2.2754517,"latitude":48.8357169,"postal_Code":"75509 CEDEX 15","plant_Order":"Poaceae"},
{"longitude":113.007156,"latitude":-7.8028722,"postal_Code":null,"plant_Order":"Lecythidaceae"},
{"longitude":114.976639,"latitude":38.530028,"postal_Code":null,"plant_Order":"Crassulaceae"},
{"longitude":-49.723909,"latitude":-29.3344108,"postal_Code":"95560-000","plant_Order":"Climaciaceae"},
{"longitude":-54.9815915,"latitude":-27.2000865,"postal_Code":"3332","plant_Order":"Isoetaceae"},
{"longitude":114.441285,"latitude":34.756916,"postal_Code":null,"plant_Order":"Hypnaceae"},
{"longitude":20.7644305,"latitude":48.081286,"postal_Code":"3543","plant_Order":"Hydrangeaceae"},
{"longitude":44.40047,"latitude":-12.1695811,"postal_Code":null,"plant_Order":"Rutaceae"},
{"longitude":116.0761121,"latitude":5.9840985,"postal_Code":"88807","plant_Order":"Mycoporaceae"},
{"longitude":121.1138058,"latitude":14.6688068,"postal_Code":"7213","plant_Order":"Rosaceae"},
{"longitude":-48.9379168,"latitude":-27.1220596,"postal_Code":"88350-000","plant_Order":"Ranunculaceae"},
{"longitude":116.444208,"latitude":39.8441383,"postal_Code":null,"plant_Order":"Micareaceae"},
{"longitude":-89.349044,"latitude":14.5629719,"postal_Code":"17003","plant_Order":"Onagraceae"},
{"longitude":-75.508016,"latitude":-11.8532073,"postal_Code":null,"plant_Order":"Brassicaceae"},
{"longitude":2.5135985,"latitude":45.2977605,"postal_Code":"21072 CEDEX","plant_Order":"Polygonaceae"},
{"longitude":123.90114,"latitude":10.3166,"postal_Code":"4215","plant_Order":"Caryophyllaceae"},
{"longitude":60.2882554,"latitude":56.8674893,"postal_Code":"620920","plant_Order":"Cyperaceae"},
{"longitude":-46.5648481,"latitude":-23.6898429,"postal_Code":"09700-000","plant_Order":"Bacidiaceae"},
{"longitude":10.7673005,"latitude":59.9050895,"postal_Code":"1101","plant_Order":"Acanthaceae"},
{"longitude":-72.194618,"latitude":-14.2234,"postal_Code":null,"plant_Order":"Dryopteridaceae"},
{"longitude":-72.0896229,"latitude":-15.6093293,"postal_Code":null,"plant_Order":"Lycopodiaceae"},
{"longitude":125.323544,"latitude":43.817071,"postal_Code":null,"plant_Order":"Caryophyllaceae"},
{"longitude":9.8180732,"latitude":4.8478109,"postal_Code":null,"plant_Order":"Poaceae"},
{"longitude":-9.1343145,"latitude":38.4490819,"postal_Code":"2970-182","plant_Order":"Asteraceae"},
{"longitude":121.1438152,"latitude":22.7613207,"postal_Code":null,"plant_Order":"Chenopodiaceae"},
{"longitude":123.6666432,"latitude":10.1253323,"postal_Code":"8715","plant_Order":"Juncaceae"},
{"longitude":-64.1582003,"latitude":-31.3540428,"postal_Code":"9113","plant_Order":"Rosaceae"},
{"longitude":119.597896,"latitude":31.723247,"postal_Code":null,"plant_Order":"Rosaceae"},
{"longitude":16.0606772,"latitude":49.1077,"postal_Code":"675 55","plant_Order":"Caryophyllaceae"},
{"longitude":16.3083468,"latitude":58.1628402,"postal_Code":"597 96","plant_Order":"Polypodiaceae"},
{"longitude":2.1450245,"latitude":14.6489525,"postal_Code":null,"plant_Order":"Mniaceae"},
{"longitude":"21.05994","latitude":"42.08336","postal_Code":"1225","plant_Order":"Juncaceae"},
{"longitude":-7.2895663,"latitude":15.1689378,"postal_Code":null,"plant_Order":"Euphorbiaceae"},
{"longitude":14.8784944,"latitude":53.36117,"postal_Code":"73-108","plant_Order":"Onagraceae"},
{"longitude":-100.2268529,"latitude":25.8025129,"postal_Code":"48966","plant_Order":"Thymelaeaceae"},
{"longitude":19.5712204,"latitude":45.2821109,"postal_Code":null,"plant_Order":"Fabaceae"},
{"longitude":7.233333,"latitude":12.866667,"postal_Code":null,"plant_Order":"Primulaceae"},
{"longitude":65.9214676,"latitude":39.9225394,"postal_Code":null,"plant_Order":"Asteraceae"},
{"longitude":-40.4760325,"latitude":-4.1948081,"postal_Code":"62265-000","plant_Order":"Crassulaceae"},
{"longitude":-48.2802925,"latitude":-15.158624,"postal_Code":"73700-000","plant_Order":"Boraginaceae"},
{"longitude":11.5077573,"latitude":3.5144204,"postal_Code":null,"plant_Order":"Cyperaceae"},
{"longitude":121.3749642,"latitude":28.3740107,"postal_Code":null,"plant_Order":"Brassicaceae"},
{"longitude":121.505132,"latitude":31.2646,"postal_Code":null,"plant_Order":"Fabaceae"},
{"longitude":132.093018,"latitude":34.7964208,"postal_Code":"697-1201","plant_Order":"Asteraceae"},
{"longitude":106.630153,"latitude":26.647661,"postal_Code":null,"plant_Order":"Fabaceae"},
{"longitude":113.022496,"latitude":34.747834,"postal_Code":null,"plant_Order":"Meesiaceae"},
{"longitude":13.2605763,"latitude":10.2603809,"postal_Code":null,"plant_Order":"Fabaceae"},
{"longitude":18.8413976,"latitude":45.4140943,"postal_Code":"32225","plant_Order":"Ranunculaceae"},
{"longitude":69.8597406,"latitude":39.9721425,"postal_Code":null,"plant_Order":"Malvaceae"},
{"longitude":33.6958809,"latitude":35.0486587,"postal_Code":null,"plant_Order":"Ranunculaceae"},
{"longitude":89.9437755,"latitude":22.454973,"postal_Code":"3807","plant_Order":"Selaginellaceae"},
{"longitude":-117.0697958,"latitude":32.5746598,"postal_Code":"92153","plant_Order":"Poaceae"},
{"longitude":-93.26,"latitude":44.9799999,"postal_Code":"55480","plant_Order":"Polygonaceae"},
{"longitude":110.797759,"latitude":19.543278,"postal_Code":null,"plant_Order":"Amaranthaceae"},
{"longitude":2.5764306,"latitude":48.8579687,"postal_Code":"93462 CEDEX","plant_Order":"Polygonaceae"},
{"longitude":119.8798268,"latitude":15.9898714,"postal_Code":"2411","plant_Order":"Fabaceae"},
{"longitude":-77.05,"latitude":38.8,"postal_Code":"22313","plant_Order":"Sapotaceae"},
{"longitude":-56.6513853,"latitude":-14.3322488,"postal_Code":"78430-000","plant_Order":"Cyperaceae"},
{"longitude":17.5206059,"latitude":48.8825673,"postal_Code":"696 74","plant_Order":"Arecaceae"},
{"longitude":34.1661641,"latitude":60.9116468,"postal_Code":"187789","plant_Order":"Polemoniaceae"},
{"longitude":113.900628,"latitude":29.724692,"postal_Code":null,"plant_Order":"Thelypteridaceae"},
{"longitude":-86.0784459,"latitude":15.6122706,"postal_Code":null,"plant_Order":"Arthopyreniaceae"},
{"longitude":-78.6169494,"latitude":35.8054733,"postal_Code":"27635","plant_Order":"Myrtaceae"},
{"longitude":116.470304,"latitude":35.937102,"postal_Code":null,"plant_Order":"Hydrophyllaceae"},
{"longitude":116.420192,"latitude":39.948572,"postal_Code":null,"plant_Order":"Arecaceae"},
{"longitude":-84.762933,"latitude":9.97788,"postal_Code":"60112","plant_Order":"Polygonaceae"},
{"longitude":"111.3587","latitude":"-6.7422","postal_Code":null,"plant_Order":"Hydrangeaceae"},
{"longitude":42.031986,"latitude":47.537724,"postal_Code":"347350","plant_Order":"Onagraceae"},
{"longitude":131.1627748,"latitude":32.7827213,"postal_Code":"861-3937","plant_Order":"Asteraceae"},
{"longitude":-76.7188613,"latitude":-9.3929796,"postal_Code":null,"plant_Order":"Fabaceae"},
{"longitude":123.8961588,"latitude":8.1113884,"postal_Code":"2100","plant_Order":"Bombacaceae"},
{"longitude":56.0925161,"latitude":57.8745672,"postal_Code":"614513","plant_Order":"Caryophyllaceae"},
{"longitude":"126.14558","latitude":"6.39035","postal_Code":"5504","plant_Order":"Fabroniaceae"},
{"longitude":19.7398213,"latitude":40.7511134,"postal_Code":null,"plant_Order":"Apiaceae"},
{"longitude":-66.5581092,"latitude":10.4597466,"postal_Code":null,"plant_Order":"Rhamnaceae"},
{"longitude":-76.068199,"latitude":-13.5033753,"postal_Code":null,"plant_Order":"Fabaceae"},
{"longitude":125.8973301,"latitude":7.1270158,"postal_Code":"8117","plant_Order":"Caryophyllaceae"},
{"longitude":121.0317737,"latitude":14.565668,"postal_Code":"6227","plant_Order":"Rubiaceae"},
{"longitude":22.558021,"latitude":50.1028869,"postal_Code":"37-511","plant_Order":"Asclepiadaceae"},
{"longitude":38.5217772,"latitude":6.488071,"postal_Code":null,"plant_Order":"Magnoliaceae"},
{"longitude":16.8764982,"latitude":49.1532539,"postal_Code":"684 01","plant_Order":"Asteraceae"},
{"longitude":-88.0379517,"latitude":43.0751316,"postal_Code":"53263","plant_Order":"Pertusariaceae"},
{"longitude":106.1125201,"latitude":10.1775604,"postal_Code":null,"plant_Order":"Brassicaceae"},
{"longitude":108.4854717,"latitude":-6.9620686,"postal_Code":null,"plant_Order":"Poaceae"},
{"longitude":20.4425942,"latitude":41.0826078,"postal_Code":null,"plant_Order":"Erythroxylaceae"},
{"longitude":3.9438609,"latitude":50.8441986,"postal_Code":"9404","plant_Order":"Cyperaceae"},
{"longitude":"171.3805","latitude":"7.08931","postal_Code":"96970","plant_Order":"Trypetheliaceae"},
{"longitude":22.8859196,"latitude":39.5001721,"postal_Code":null,"plant_Order":"Aulacomniaceae"},
{"longitude":9.8292338,"latitude":44.1313751,"postal_Code":"19125","plant_Order":"Mniaceae"},
{"longitude":96.3806203,"latitude":61.6833669,"postal_Code":"648360","plant_Order":"Ericaceae"},
{"longitude":25.6162991,"latitude":42.9856238,"postal_Code":"5056","plant_Order":"Loganiaceae"},
{"longitude":-73.3919739,"latitude":-37.8058201,"postal_Code":null,"plant_Order":"Fabaceae"},
{"longitude":115.9467997,"latitude":-3.0029841,"postal_Code":null,"plant_Order":"Salicaceae"},
{"longitude":17.38516,"latitude":50.69625,"postal_Code":"49-200","plant_Order":"Dennstaedtiaceae"},
{"longitude":114.2747123,"latitude":-3.2930615,"postal_Code":null,"plant_Order":"Liliaceae"},
{"longitude":-51.2003761,"latitude":-29.0303854,"postal_Code":"95270-000","plant_Order":"Ramalinaceae"},
{"longitude":122.1882382,"latitude":7.0232835,"postal_Code":"6503","plant_Order":"Asteraceae"},
{"longitude":123.729698,"latitude":-10.02569,"postal_Code":null,"plant_Order":"Asteraceae"},
{"longitude":26.354462,"latitude":-31.3961762,"postal_Code":"5500","plant_Order":"Lecanoraceae"},
{"longitude":-2.4109908,"latitude":13.5668258,"postal_Code":null,"plant_Order":"Hymenophyllaceae"},
{"longitude":-80.1226012,"latitude":26.4649188,"postal_Code":"33448","plant_Order":"Rubiaceae"},
{"longitude":-84.3680059,"latitude":39.100057,"postal_Code":"45228","plant_Order":"Linaceae"},
{"longitude":106.8075136,"latitude":-6.6215219,"postal_Code":null,"plant_Order":"Cyperaceae"},
{"longitude":-74.9501034,"latitude":20.6574573,"postal_Code":null,"plant_Order":"Crassulaceae"},
{"longitude":16.3077813,"latitude":45.8361987,"postal_Code":"10370","plant_Order":"Rosaceae"},
{"longitude":120.670141,"latitude":30.905779,"postal_Code":null,"plant_Order":"Scrophulariaceae"},
{"longitude":114.513012,"latitude":32.203072,"postal_Code":null,"plant_Order":"Asclepiadaceae"},
{"longitude":-70.5906057,"latitude":-33.6186082,"postal_Code":null,"plant_Order":"Brassicaceae"},
{"longitude":-59.4706823,"latitude":13.1089876,"postal_Code":null,"plant_Order":"Loasaceae"},
{"longitude":6.624795,"latitude":52.3517146,"postal_Code":"7604","plant_Order":"Fabaceae"},
{"longitude":118.180193,"latitude":39.630867,"postal_Code":null,"plant_Order":"Plumbaginaceae"},
{"longitude":93.2187293,"latitude":54.3141155,"postal_Code":"662955","plant_Order":"Asteraceae"},
{"longitude":113.121435,"latitude":23.021478,"postal_Code":null,"plant_Order":"Poaceae"},
{"longitude":118.038714,"latitude":27.518353,"postal_Code":null,"plant_Order":"Asteraceae"},
{"longitude":123.1446683,"latitude":13.5438736,"postal_Code":"4312","plant_Order":"Polemoniaceae"},
{"longitude":60.665967,"latitude":56.7653841,"postal_Code":"648581","plant_Order":"Rubiaceae"},
{"longitude":107.9276672,"latitude":-6.7796462,"postal_Code":null,"plant_Order":"Chenopodiaceae"},
{"longitude":120.8551691,"latitude":15.3098074,"postal_Code":"1706","plant_Order":"Lamiaceae"},
{"longitude":121.2225723,"latitude":14.1163511,"postal_Code":"4117","plant_Order":"Callitrichaceae"},
{"longitude":-116.93933,"latitude":32.7925057,"postal_Code":"40596","plant_Order":"Ranunculaceae"},
{"longitude":119.837124,"latitude":40.824367,"postal_Code":null,"plant_Order":"Salicaceae"},
{"longitude":37.5454589,"latitude":36.1722416,"postal_Code":null,"plant_Order":"Asteraceae"},
{"longitude":"31.71417","latitude":"53.69889","postal_Code":null,"plant_Order":"Encalyptaceae"},
{"longitude":-77.5661219,"latitude":1.058464,"postal_Code":"523047","plant_Order":"Lecanoraceae"},
{"longitude":111.2293563,"latitude":-6.7455152,"postal_Code":null,"plant_Order":"Fagaceae"},
{"longitude":106.5701927,"latitude":-7.1221059,"postal_Code":null,"plant_Order":"Liliaceae"},
{"longitude":105.390592,"latitude":27.685255,"postal_Code":null,"plant_Order":"Orchidaceae"},
{"longitude":39.645666,"latitude":52.64321,"postal_Code":"682574","plant_Order":"Convolvulaceae"},
{"longitude":-74.024773,"latitude":4.917531,"postal_Code":"250247","plant_Order":"Dryopteridaceae"},
{"longitude":110.7897275,"latitude":-7.7285206,"postal_Code":null,"plant_Order":"Arthoniaceae"},
{"longitude":119.3028774,"latitude":26.08603,"postal_Code":null,"plant_Order":"Apiaceae"},
{"longitude":-8.1927645,"latitude":41.124339,"postal_Code":"4625-177","plant_Order":"Fabaceae"},
{"longitude":116.525725,"latitude":27.218444,"postal_Code":null,"plant_Order":"Asteraceae"},
{"longitude":80.0161127,"latitude":9.665692,"postal_Code":"40000","plant_Order":"Parmeliaceae"},
{"longitude":7.1736304,"latitude":51.256002,"postal_Code":"42285","plant_Order":"Araceae"},
{"longitude":35.159029,"latitude":31.848896,"postal_Code":null,"plant_Order":"Physciaceae"},
{"longitude":124.4475522,"latitude":-8.2333409,"postal_Code":null,"plant_Order":"Fabaceae"},
{"longitude":-4.4239965,"latitude":36.7195014,"postal_Code":"29005","plant_Order":"Asteraceae"},
{"longitude":107.4970353,"latitude":-6.9144512,"postal_Code":null,"plant_Order":"Ramalinaceae"},
{"longitude":27.9073244,"latitude":-26.2652787,"postal_Code":"1809","plant_Order":"Rimulariaceae"},
{"longitude":15.28454,"latitude":53.5659675,"postal_Code":"72-210","plant_Order":"Lentibulariaceae"},
{"longitude":61.9813913,"latitude":33.6716082,"postal_Code":null,"plant_Order":"Ranunculaceae"},
{"longitude":-80.3408061,"latitude":-4.9295129,"postal_Code":null,"plant_Order":"Encalyptaceae"},
{"longitude":-73.9565551,"latitude":40.6945036,"postal_Code":"11205","plant_Order":"Polemoniaceae"},
{"longitude":-71.8291245,"latitude":46.8922184,"postal_Code":"G3L","plant_Order":"Polygonaceae"},
{"longitude":100.4846227,"latitude":15.670299,"postal_Code":"60160","plant_Order":"Asteraceae"},
{"longitude":119.8149736,"latitude":-3.8375079,"postal_Code":null,"plant_Order":"Poaceae"},
{"longitude":106.6114474,"latitude":8.7009282,"postal_Code":null,"plant_Order":"Liliaceae"},
{"longitude":101.449837,"latitude":49.1169513,"postal_Code":null,"plant_Order":"Lecanoraceae"},
{"longitude":109.857969,"latitude":30.132282,"postal_Code":null,"plant_Order":"Convolvulaceae"},
{"longitude":72.3382061,"latitude":53.6362335,"postal_Code":null,"plant_Order":"Asteraceae"},
{"longitude":"173.04259","latitude":"1.35317","postal_Code":null,"plant_Order":"Brassicaceae"},
{"longitude":-0.630617,"latitude":44.8055893,"postal_Code":"33604 CEDEX","plant_Order":"Collemataceae"},
{"longitude":121.315718,"latitude":31.058765,"postal_Code":null,"plant_Order":"Euphorbiaceae"},
{"longitude":107.0185123,"latitude":-6.7131574,"postal_Code":null,"plant_Order":"Apiaceae"},
{"longitude":14.4280868,"latitude":49.5234905,"postal_Code":"398 53","plant_Order":"Brassicaceae"},
{"longitude":20.1340172,"latitude":54.6744703,"postal_Code":"141028","plant_Order":"Cyperaceae"},
{"longitude":-37.4894776,"latitude":-6.4525359,"postal_Code":"58865-000","plant_Order":"Fabaceae"},
{"longitude":-46.995789,"latitude":-20.9052746,"postal_Code":"37950-000","plant_Order":"Rhizophoraceae"},
{"longitude":43.200317,"latitude":57.7856103,"postal_Code":"157980","plant_Order":"Cyperaceae"},
{"longitude":120.07514,"latitude":29.306756,"postal_Code":null,"plant_Order":"Lobariaceae"},
{"longitude":115.786056,"latitude":25.600272,"postal_Code":null,"plant_Order":"Chenopodiaceae"},
{"longitude":24.2987265,"latitude":42.0298857,"postal_Code":"4550","plant_Order":"Fagaceae"},
{"longitude":110.778411,"latitude":21.441808,"postal_Code":null,"plant_Order":"Cyperaceae"},
{"longitude":-9.3225944,"latitude":38.7280454,"postal_Code":"2785-025","plant_Order":"Fabaceae"},
{"longitude":-89.6051502,"latitude":39.7761758,"postal_Code":"62764","plant_Order":"Potamogetonaceae"},
{"longitude":104.990101,"latitude":29.528923,"postal_Code":null,"plant_Order":"Pertusariaceae"},
{"longitude":-53.3122927,"latitude":-27.9094431,"postal_Code":"98300-000","plant_Order":"Liliaceae"},
{"longitude":15.427113,"latitude":60.5381467,"postal_Code":"827 82","plant_Order":"Dicranaceae"},
{"longitude":28.9461989,"latitude":48.8162706,"postal_Code":null,"plant_Order":"Acanthaceae"},
{"longitude":-86.3944828,"latitude":35.8559647,"postal_Code":"37131","plant_Order":"Myrtaceae"},
{"longitude":6.481599,"latitude":48.6511908,"postal_Code":"54304 CEDEX","plant_Order":"Asteraceae"},
{"longitude":35.236911,"latitude":31.926481,"postal_Code":null,"plant_Order":"Scrophulariaceae"},
{"longitude":16.370548,"latitude":56.6750878,"postal_Code":"392 30","plant_Order":"Proteaceae"},
{"longitude":122.7339098,"latitude":11.2533569,"postal_Code":"1105","plant_Order":"Polemoniaceae"},
{"longitude":87.8550409,"latitude":56.0184306,"postal_Code":"452242","plant_Order":"Crassulaceae"},
{"longitude":104.0304535,"latitude":16.504382,"postal_Code":"46110","plant_Order":"Asteraceae"},
{"longitude":67.7240089,"latitude":26.4755204,"postal_Code":"67311","plant_Order":"Solanaceae"},
{"longitude":112.867154,"latitude":-6.9218452,"postal_Code":null,"plant_Order":"Aspleniaceae"},
{"longitude":117.694969,"latitude":27.027081,"postal_Code":null,"plant_Order":"Viscaceae"},
{"longitude":111.9805058,"latitude":49.5902725,"postal_Code":"674250","plant_Order":"Fabaceae"},
{"longitude":118.05545,"latitude":43.61812,"postal_Code":null,"plant_Order":"Juncaceae"},
{"longitude":139.934112,"latitude":38.9814589,"postal_Code":"999-8242","plant_Order":"Asteraceae"},
{"longitude":"25.8429","latitude":"52.5175","postal_Code":null,"plant_Order":"Parmeliaceae"},
{"longitude":-77.0336768,"latitude":38.8987281,"postal_Code":"20220","plant_Order":"Entodontaceae"},
{"longitude":120.7213113,"latitude":13.0748879,"postal_Code":"5105","plant_Order":"Scrophulariaceae"},
{"longitude":115.431153,"latitude":31.695648,"postal_Code":null,"plant_Order":"Scrophulariaceae"},
{"longitude":120.2570421,"latitude":23.4464152,"postal_Code":null,"plant_Order":"Juncaceae"},
{"longitude":139.4046734,"latitude":35.3372599,"postal_Code":"253-0041","plant_Order":"Caprifoliaceae"},
{"longitude":112.907402,"latitude":-2.389643,"postal_Code":null,"plant_Order":"Hydrophyllaceae"},
{"longitude":121.029454,"latitude":14.5636491,"postal_Code":"4713","plant_Order":"Caryophyllaceae"},
{"longitude":39.192149,"latitude":44.0088432,"postal_Code":"396614","plant_Order":"Scrophulariaceae"},
{"longitude":124.0251538,"latitude":10.8379491,"postal_Code":"6008","plant_Order":"Campanulaceae"},
{"longitude":127.507824,"latitude":46.880102,"postal_Code":null,"plant_Order":"Stemonaceae"},
{"longitude":-71.2829759,"latitude":-35.1164987,"postal_Code":null,"plant_Order":"Dicranaceae"},
{"longitude":23.0876498,"latitude":51.7248754,"postal_Code":"21-205","plant_Order":"Cistaceae"},
{"longitude":91.773134,"latitude":29.237137,"postal_Code":null,"plant_Order":"Pottiaceae"},
{"longitude":-39.0300323,"latitude":-16.2768187,"postal_Code":"45807-000","plant_Order":"Dactylosporaceae"},
{"longitude":122.1235054,"latitude":-8.6436289,"postal_Code":null,"plant_Order":"Erythroxylaceae"},
{"longitude":57.7502092,"latitude":-20.2191237,"postal_Code":null,"plant_Order":"Apocynaceae"},
{"longitude":7.0794263,"latitude":5.9353459,"postal_Code":null,"plant_Order":"Brassicaceae"},
{"longitude":120.3867834,"latitude":-8.5997534,"postal_Code":null,"plant_Order":"Lythraceae"},
{"longitude":132.7466993,"latitude":-2.840682,"postal_Code":null,"plant_Order":"Physciaceae"},
{"longitude":-75.4577775,"latitude":10.090412,"postal_Code":"131029","plant_Order":"Agavaceae"},
{"longitude":-116.9030256,"latitude":32.5468611,"postal_Code":"29223","plant_Order":"Flacourtiaceae"},
{"longitude":15.9429753,"latitude":46.5670711,"postal_Code":"2236","plant_Order":"Myrsinaceae"},
{"longitude":46.0845137,"latitude":43.2082756,"postal_Code":"366319","plant_Order":"Polemoniaceae"},
{"longitude":"37.58333","latitude":"55.85","postal_Code":"659436","plant_Order":"Asteraceae"},
{"longitude":-9.3338323,"latitude":38.9936299,"postal_Code":"2640-616","plant_Order":"Capparaceae"},
{"longitude":116.604574,"latitude":24.848984,"postal_Code":null,"plant_Order":"Bignoniaceae"},
{"longitude":115.7782286,"latitude":-3.4795532,"postal_Code":null,"plant_Order":"Fabaceae"},
{"longitude":46.6512998,"latitude":34.7120892,"postal_Code":null,"plant_Order":"Sterculiaceae"},
{"longitude":110.9387418,"latitude":-7.3072726,"postal_Code":null,"plant_Order":"Celastraceae"},
{"longitude":81.872025,"latitude":43.82551,"postal_Code":null,"plant_Order":"Garryaceae"},
{"longitude":37.8777561,"latitude":15.5406754,"postal_Code":null,"plant_Order":"Cyperaceae"},
{"longitude":20.4081061,"latitude":50.9524702,"postal_Code":"26-067","plant_Order":"Liliaceae"},
{"longitude":-92.15,"latitude":38.5,"postal_Code":"65105","plant_Order":"Taxaceae"},
{"longitude":"30.64891","latitude":"46.36313","postal_Code":null,"plant_Order":"Poaceae"},
{"longitude":37.5166323,"latitude":56.2421713,"postal_Code":"141860","plant_Order":"Hydrophyllaceae"},
{"longitude":-70.0475302,"latitude":-26.3902488,"postal_Code":null,"plant_Order":"Ectolechiaceae"},
{"longitude":121.097488,"latitude":16.820152,"postal_Code":"3600","plant_Order":"Gentianaceae"}]
